{"type":"FeatureCollection","features":[{"type":"Feature","properties":{"name":"Staten Island","slug":"staten_island"},"geometry":{"type":"MultiPolygon","coordinates":[[[[-74.05051,40.56642],[-74.04932,40.56589],[-74.04924,40.56536],[-74.05003,40.56532],[-74.05107,40.56672],[-74.05051,40.56642]]],[[[-74.05314,40.5777],[-74.05406,40.57712],[-74.0549,40.57778],[-74.05485,40.57995],[-74.05369,40.58055],[-74.05293,40.5799],[-74.05314,40.5777]]],[[[-74.15946,40.64145],[-74.16111,40.64184],[-74.16153,40.64416],[-74.1581,40.64376],[-74.15756,40.64324],[-74.15946,40.64145]]],[[[-74.08221,40.64828],[-74.079,40.64814],[-74.07651,40.64697],[-74.07445,40.64507],[-74.07359,40.645],[-74.07386,40.64542],[-74.07334,40.64578],[-74.07369,40.64531],[-74.07259,40.64479],[-74.0727,40.64444],[-74.07166,40.64503],[-74.07229,40.64427],[-74.07113,40.64321],[-74.07211,40.64246],[-74.07033,40.64253],[-74.07324,40.64218],[-74.07314,40.64185],[-74.07019,40.64201],[-74.07309,40.64164],[-74.07289,40.64092],[-74.06998,40.64107],[-74.07308,40.64051],[-74.07309,40.63862],[-74.07238,40.63816],[-74.07348,40.63779],[-74.07337,40.63661],[-74.07209,40.63665],[-74.07336,40.63654],[-74.07298,40.63031],[-74.06802,40.62879],[-74.07291,40.63],[-74.0723,40.62714],[-74.07353,40.62686],[-74.07271,40.62687],[-74.07226,40.62461],[-74.07003,40.62145],[-74.06649,40.6189],[-74.06596,40.61936],[-74.0662,40.61872],[-74.06545,40.6192],[-74.06668,40.61807],[-74.06642,40.61787],[-74.06426,40.61817],[-74.0651,40.61751],[-74.06444,40.61706],[-74.06391,40.61733],[-74.06433,40.61699],[-74.06144,40.61438],[-74.06034,40.6119],[-74.05985,40.6121],[-74.06,40.61278],[-74.05977,40.61206],[-74.06027,40.61182],[-74.05892,40.61106],[-74.05909,40.61063],[-74.05716,40.60874],[-74.0565,40.60725],[-74.05381,40.60591],[-74.05361,40.60524],[-74.05402,40.60493],[-74.05303,40.60147],[-74.05342,40.60052],[-74.05223,40.59982],[-74.05287,40.59987],[-74.05447,40.59876],[-74.05964,40.59371],[-74.06215,40.59203],[-74.06503,40.58899],[-74.06436,40.58827],[-74.06478,40.58849],[-74.06722,40.58673],[-74.07096,40.58318],[-74.07149,40.58217],[-74.07066,40.58163],[-74.07178,40.58188],[-74.07499,40.57924],[-74.07336,40.57828],[-74.07508,40.57916],[-74.0758,40.57831],[-74.07535,40.57789],[-74.07602,40.57824],[-74.07926,40.57567],[-74.07868,40.57508],[-74.07934,40.57563],[-74.0805,40.57498],[-74.08595,40.5703],[-74.08691,40.56899],[-74.08622,40.56853],[-74.08725,40.56908],[-74.08925,40.56702],[-74.08998,40.56738],[-74.091,40.56674],[-74.09407,40.56273],[-74.09542,40.56315],[-74.09661,40.56209],[-74.0982,40.55984],[-74.09829,40.55933],[-74.09782,40.55905],[-74.09876,40.55942],[-74.1008,40.55832],[-74.10185,40.55622],[-74.10135,40.55558],[-74.10265,40.55613],[-74.1031,40.5559],[-74.10466,40.55412],[-74.10484,40.55303],[-74.10648,40.55416],[-74.10735,40.55415],[-74.11028,40.5515],[-74.11279,40.54788],[-74.11474,40.548],[-74.11546,40.54752],[-74.11655,40.54787],[-74.11804,40.54731],[-74.11978,40.54547],[-74.1225,40.54486],[-74.12638,40.54052],[-74.13071,40.53454],[-74.13356,40.53151],[-74.13691,40.52928],[-74.13729,40.52974],[-74.13888,40.52996],[-74.13915,40.53152],[-74.14061,40.53413],[-74.14048,40.53508],[-74.1401,40.53548],[-74.1341,40.53549],[-74.1312,40.53787],[-74.13153,40.53772],[-74.13129,40.53796],[-74.13181,40.53831],[-74.13211,40.53805],[-74.1317,40.53786],[-74.13242,40.53777],[-74.13191,40.53753],[-74.13245,40.53776],[-74.13275,40.5375],[-74.13224,40.53726],[-74.1324,40.53712],[-74.13278,40.53748],[-74.13307,40.53723],[-74.13256,40.53699],[-74.13339,40.53696],[-74.13287,40.53672],[-74.13304,40.53657],[-74.13341,40.53694],[-74.13386,40.5366],[-74.12997,40.53997],[-74.13021,40.5397],[-74.12968,40.53947],[-74.13052,40.53943],[-74.13,40.53917],[-74.13054,40.53941],[-74.13084,40.53915],[-74.13032,40.5389],[-74.13049,40.53876],[-74.13086,40.53913],[-74.13115,40.53887],[-74.13065,40.53862],[-74.13117,40.53886],[-74.13147,40.5386],[-74.13098,40.53834],[-74.13179,40.53833],[-74.13116,40.5379],[-74.12799,40.54071],[-74.12741,40.54202],[-74.12793,40.54337],[-74.12757,40.5435],[-74.13073,40.54626],[-74.13326,40.54685],[-74.13542,40.54657],[-74.13713,40.54593],[-74.13612,40.54502],[-74.13638,40.54485],[-74.13719,40.54578],[-74.13751,40.54558],[-74.13659,40.54485],[-74.13687,40.54468],[-74.13795,40.546],[-74.13887,40.54513],[-74.13762,40.54425],[-74.13876,40.54493],[-74.13902,40.54472],[-74.13787,40.54405],[-74.13903,40.5447],[-74.13954,40.5443],[-74.13915,40.54451],[-74.13942,40.54421],[-74.13897,40.54438],[-74.13922,40.54407],[-74.13859,40.5441],[-74.13882,40.54378],[-74.13828,40.54387],[-74.13834,40.54355],[-74.13852,40.5434],[-74.13957,40.54427],[-74.13984,40.54405],[-74.13871,40.54329],[-74.13891,40.54313],[-74.14039,40.54403],[-74.13922,40.54317],[-74.1403,40.54364],[-74.13936,40.54283],[-74.14031,40.54337],[-74.14063,40.54311],[-74.13963,40.54254],[-74.13986,40.54236],[-74.14065,40.54309],[-74.14132,40.54309],[-74.14017,40.54237],[-74.14034,40.54223],[-74.14021,40.54237],[-74.14141,40.54302],[-74.14026,40.54196],[-74.14135,40.54258],[-74.1418,40.5422],[-74.14064,40.54169],[-74.14096,40.54143],[-74.14187,40.54217],[-74.14169,40.54235],[-74.1423,40.54225],[-74.14248,40.54133],[-74.14173,40.53934],[-74.1423,40.53907],[-74.14177,40.53854],[-74.14227,40.53814],[-74.14184,40.53842],[-74.14217,40.53793],[-74.14104,40.53735],[-74.1413,40.53714],[-74.14219,40.53792],[-74.14158,40.53709],[-74.14383,40.53714],[-74.14474,40.5358],[-74.14922,40.53424],[-74.1507,40.53255],[-74.15246,40.53207],[-74.15454,40.53006],[-74.15493,40.53023],[-74.15599,40.52942],[-74.15645,40.52893],[-74.15619,40.52861],[-74.15702,40.52898],[-74.1597,40.5273],[-74.16227,40.52719],[-74.17,40.52305],[-74.17129,40.52346],[-74.1727,40.52297],[-74.17601,40.52088],[-74.17758,40.51923],[-74.17832,40.51995],[-74.18105,40.52066],[-74.18483,40.51934],[-74.1885,40.51631],[-74.18927,40.51534],[-74.18884,40.51509],[-74.18971,40.51532],[-74.1941,40.51064],[-74.19521,40.50998],[-74.1965,40.50992],[-74.19967,40.51143],[-74.20006,40.51262],[-74.19893,40.51278],[-74.19907,40.51308],[-74.20757,40.51186],[-74.20969,40.5108],[-74.20919,40.5105],[-74.20932,40.5104],[-74.20985,40.51067],[-74.21353,40.5064],[-74.21511,40.50606],[-74.21758,40.50334],[-74.225,40.50177],[-74.22729,40.5023],[-74.23124,40.50183],[-74.23679,40.5],[-74.23985,40.49758],[-74.24433,40.49755],[-74.24676,40.49613],[-74.24964,40.49684],[-74.25085,40.49801],[-74.2511,40.49893],[-74.25316,40.50013],[-74.25528,40.50406],[-74.25559,40.50771],[-74.25463,40.50867],[-74.25498,40.50877],[-74.25497,40.50881],[-74.254,40.50897],[-74.25431,40.50941],[-74.25369,40.50943],[-74.25465,40.50983],[-74.25453,40.50997],[-74.25365,40.50947],[-74.25332,40.50986],[-74.25301,40.51119],[-74.25353,40.51168],[-74.25304,40.51143],[-74.25309,40.51212],[-74.25195,40.513],[-74.25213,40.51371],[-74.25011,40.51504],[-74.25056,40.51572],[-74.24989,40.51552],[-74.25056,40.51611],[-74.24922,40.51508],[-74.24994,40.51614],[-74.24943,40.51569],[-74.24828,40.51649],[-74.24895,40.51719],[-74.24941,40.51698],[-74.24851,40.51748],[-74.24892,40.51721],[-74.24752,40.51574],[-74.24644,40.51597],[-74.24613,40.51614],[-74.247,40.51718],[-74.24648,40.51669],[-74.24521,40.51729],[-74.24563,40.51808],[-74.2443,40.51852],[-74.24232,40.51833],[-74.24103,40.51954],[-74.24049,40.51919],[-74.23982,40.52009],[-74.24117,40.52106],[-74.24293,40.52123],[-74.24258,40.5222],[-74.2428,40.52401],[-74.24336,40.52482],[-74.24397,40.52491],[-74.24151,40.53104],[-74.24181,40.53256],[-74.24218,40.53258],[-74.24205,40.53435],[-74.24412,40.5362],[-74.24415,40.53688],[-74.24534,40.53691],[-74.24443,40.53802],[-74.24539,40.53955],[-74.2456,40.54095],[-74.24649,40.54221],[-74.24803,40.54309],[-74.24614,40.5457],[-74.24336,40.54787],[-74.24358,40.54762],[-74.2422,40.54695],[-74.24039,40.54766],[-74.23762,40.55012],[-74.23641,40.55051],[-74.2364,40.55234],[-74.2349,40.55301],[-74.23332,40.55251],[-74.23071,40.55556],[-74.22932,40.55549],[-74.22833,40.55639],[-74.22344,40.55605],[-74.22379,40.55588],[-74.22257,40.55541],[-74.2213,40.55537],[-74.22087,40.55594],[-74.21974,40.55461],[-74.21908,40.55485],[-74.21934,40.55569],[-74.21922,40.5558],[-74.21859,40.55467],[-74.21875,40.55603],[-74.21775,40.55501],[-74.21604,40.55554],[-74.21474,40.55624],[-74.21499,40.55679],[-74.21327,40.55662],[-74.21197,40.55844],[-74.21188,40.5596],[-74.21117,40.56049],[-74.21138,40.56349],[-74.20887,40.56891],[-74.20893,40.56962],[-74.20802,40.57052],[-74.20784,40.57261],[-74.20708,40.57427],[-74.20728,40.57525],[-74.20681,40.57592],[-74.20709,40.57631],[-74.20592,40.57862],[-74.20599,40.58041],[-74.20508,40.5816],[-74.2044,40.58371],[-74.20463,40.58432],[-74.20412,40.5859],[-74.20458,40.58822],[-74.20412,40.58888],[-74.20471,40.58877],[-74.20465,40.58929],[-74.20386,40.59025],[-74.20389,40.58979],[-74.20201,40.5909],[-74.20247,40.59084],[-74.20305,40.59114],[-74.20203,40.591],[-74.20184,40.59164],[-74.202,40.59178],[-74.2023,40.59147],[-74.20232,40.59152],[-74.20093,40.59287],[-74.19974,40.59356],[-74.19751,40.5968],[-74.19731,40.59806],[-74.19876,40.60171],[-74.20222,40.60597],[-74.20282,40.60827],[-74.20244,40.61328],[-74.20045,40.61633],[-74.20091,40.6178],[-74.20035,40.61834],[-74.20084,40.6188],[-74.20107,40.62038],[-74.20043,40.6205],[-74.20143,40.62161],[-74.20163,40.62312],[-74.20108,40.62408],[-74.20106,40.6259],[-74.20142,40.62607],[-74.20099,40.62934],[-74.20043,40.62982],[-74.20079,40.63035],[-74.2004,40.63029],[-74.2004,40.63146],[-74.19679,40.63339],[-74.19603,40.635],[-74.19531,40.63523],[-74.19442,40.63658],[-74.19462,40.63739],[-74.19358,40.63747],[-74.18652,40.64339],[-74.18623,40.64319],[-74.18484,40.64413],[-74.18365,40.64224],[-74.18403,40.6431],[-74.18324,40.64296],[-74.18367,40.64461],[-74.18087,40.64485],[-74.18004,40.64429],[-74.17997,40.64527],[-74.17973,40.64438],[-74.17933,40.6444],[-74.17925,40.64504],[-74.17907,40.64465],[-74.17959,40.64192],[-74.17919,40.64299],[-74.17826,40.64213],[-74.17834,40.64259],[-74.17721,40.64312],[-74.1767,40.64242],[-74.17636,40.64233],[-74.17667,40.64339],[-74.1756,40.64331],[-74.17568,40.64471],[-74.17437,40.64514],[-74.17294,40.6442],[-74.173,40.64359],[-74.17236,40.64326],[-74.17272,40.64295],[-74.17134,40.64286],[-74.17186,40.64252],[-74.17159,40.64103],[-74.17202,40.64099],[-74.17294,40.64058],[-74.17298,40.64049],[-74.17157,40.64101],[-74.17137,40.64209],[-74.17105,40.64259],[-74.17119,40.64174],[-74.16906,40.64213],[-74.16653,40.64142],[-74.1661,40.64241],[-74.16632,40.64144],[-74.1658,40.64122],[-74.16544,40.64228],[-74.16494,40.64221],[-74.16519,40.64064],[-74.16473,40.64039],[-74.16441,40.6414],[-74.1646,40.64032],[-74.16417,40.63999],[-74.164,40.64107],[-74.16385,40.63989],[-74.16345,40.63986],[-74.16325,40.64096],[-74.16168,40.64061],[-74.16228,40.63877],[-74.16182,40.63865],[-74.16145,40.63943],[-74.16166,40.63866],[-74.16124,40.6386],[-74.1609,40.63939],[-74.16108,40.63857],[-74.16035,40.63844],[-74.15986,40.63993],[-74.16022,40.63834],[-74.15986,40.63873],[-74.15932,40.63781],[-74.15901,40.63882],[-74.15893,40.63826],[-74.15789,40.63797],[-74.15773,40.63888],[-74.15777,40.63796],[-74.1561,40.63794],[-74.1557,40.63752],[-74.15483,40.63772],[-74.15469,40.63919],[-74.1546,40.63734],[-74.1528,40.63713],[-74.15222,40.63769],[-74.1523,40.63827],[-74.15205,40.63767],[-74.1512,40.63773],[-74.1514,40.6394],[-74.15113,40.6385],[-74.15056,40.63856],[-74.14945,40.63741],[-74.14942,40.63829],[-74.14888,40.63871],[-74.14856,40.63744],[-74.14878,40.63888],[-74.14519,40.63938],[-74.14386,40.63889],[-74.14336,40.63971],[-74.14239,40.63964],[-74.1423,40.64031],[-74.14148,40.64009],[-74.14076,40.64059],[-74.13435,40.64189],[-74.13299,40.64142],[-74.13126,40.6416],[-74.13146,40.64131],[-74.13018,40.64072],[-74.12949,40.64135],[-74.12998,40.64073],[-74.12931,40.64034],[-74.12893,40.64041],[-74.12891,40.64119],[-74.12881,40.64023],[-74.12753,40.64016],[-74.12703,40.63932],[-74.12705,40.64024],[-74.12607,40.64025],[-74.12637,40.64133],[-74.12564,40.64142],[-74.12613,40.64126],[-74.126,40.64023],[-74.12416,40.64013],[-74.1226,40.6406],[-74.12283,40.64129],[-74.12199,40.64155],[-74.11993,40.6412],[-74.11961,40.64138],[-74.11996,40.64221],[-74.1191,40.64147],[-74.1194,40.64238],[-74.119,40.64146],[-74.11862,40.64153],[-74.11884,40.64254],[-74.1184,40.64153],[-74.11712,40.64167],[-74.11672,40.64203],[-74.11722,40.64303],[-74.11667,40.64211],[-74.1163,40.6422],[-74.11667,40.64319],[-74.11614,40.64222],[-74.11535,40.64247],[-74.1138,40.64361],[-74.11395,40.64414],[-74.11289,40.64453],[-74.11386,40.64408],[-74.11333,40.64372],[-74.10974,40.64546],[-74.10412,40.64574],[-74.0988,40.64505],[-74.09299,40.64597],[-74.08571,40.64888],[-74.08221,40.64828]]]]}},{"type":"Feature","properties":{"name":"Brooklyn","slug":"brooklyn"},"geometry":{"type":"MultiPolygon","coordinates":[[[[-73.86327,40.58388],[-73.86449,40.58361],[-73.86773,40.58166],[-73.86926,40.58191],[-73.87051,40.58334],[-73.87116,40.58687],[-73.86981,40.58946],[-73.86635,40.59189],[-73.86327,40.59091],[-73.86125,40.58799],[-73.86167,40.58614],[-73.86327,40.58388]]],[[[-73.86953,40.59871],[-73.86967,40.59669],[-73.87021,40.59695],[-73.86953,40.59871]]],[[[-73.9199,40.5996],[-73.91866,40.59947],[-73.91626,40.59816],[-73.91338,40.59472],[-73.91295,40.59205],[-73.91524,40.59159],[-73.91788,40.59472],[-73.92182,40.59733],[-73.92213,40.59866],[-73.92085,40.59954],[-73.9199,40.5996]]],[[[-73.87019,40.599],[-73.87108,40.5989],[-73.87049,40.6026],[-73.87026,40.60168],[-73.87019,40.599]]],[[[-73.85243,40.59733],[-73.85673,40.59608],[-73.86044,40.59647],[-73.86336,40.60032],[-73.86113,40.60255],[-73.85483,40.60187],[-73.85277,40.60095],[-73.85077,40.59884],[-73.85243,40.59733]]],[[[-73.86703,40.60374],[-73.86768,40.60307],[-73.86831,40.60314],[-73.86794,40.60396],[-73.86703,40.60417],[-73.86703,40.60374]]],[[[-73.84674,40.60485],[-73.84608,40.60454],[-73.84641,40.60419],[-73.84578,40.60482],[-73.84445,40.60469],[-73.84496,40.60438],[-73.84492,40.60368],[-73.84562,40.60352],[-73.84667,40.60418],[-73.84665,40.60458],[-73.84786,40.6047],[-73.84674,40.60485]]],[[[-73.84828,40.60543],[-73.84795,40.60535],[-73.84784,40.60508],[-73.84825,40.60514],[-73.84828,40.60543]]],[[[-73.8484,40.60592],[-73.84826,40.60578],[-73.84872,40.60589],[-73.84854,40.60596],[-73.8484,40.60592]]],[[[-73.83446,40.60719],[-73.83574,40.60579],[-73.83437,40.60785],[-73.83446,40.60719]]],[[[-73.86702,40.60807],[-73.86874,40.60704],[-73.86868,40.60824],[-73.86778,40.60854],[-73.86702,40.60807]]],[[[-73.86966,40.60654],[-73.87109,40.60469],[-73.87106,40.60629],[-73.87246,40.60819],[-73.873,40.61056],[-73.87104,40.60972],[-73.86966,40.60654]]],[[[-73.85048,40.61234],[-73.84967,40.61211],[-73.8495,40.61033],[-73.85009,40.61016],[-73.84942,40.60982],[-73.85135,40.60927],[-73.85324,40.60773],[-73.85446,40.6079],[-73.85363,40.60726],[-73.85507,40.60746],[-73.85464,40.60769],[-73.8548,40.6086],[-73.85555,40.60898],[-73.85525,40.60954],[-73.85595,40.60954],[-73.8566,40.61083],[-73.85619,40.61105],[-73.85542,40.61012],[-73.85196,40.61024],[-73.85265,40.61117],[-73.85172,40.61095],[-73.85174,40.61157],[-73.85106,40.61147],[-73.85048,40.61234]]],[[[-73.84473,40.61397],[-73.84357,40.61367],[-73.84343,40.61297],[-73.84264,40.61317],[-73.84184,40.61269],[-73.84158,40.61183],[-73.84067,40.61145],[-73.8398,40.61236],[-73.83911,40.61247],[-73.83871,40.61199],[-73.8388,40.6128],[-73.83818,40.61308],[-73.83624,40.61227],[-73.83852,40.60924],[-73.83887,40.60791],[-73.8391,40.60831],[-73.84004,40.60823],[-73.8401,40.60896],[-73.8405,40.60856],[-73.83936,40.60761],[-73.84136,40.60679],[-73.84042,40.60577],[-73.8406,40.6054],[-73.84123,40.60553],[-73.84113,40.60469],[-73.84149,40.6045],[-73.84186,40.60479],[-73.84443,40.60416],[-73.84271,40.60464],[-73.84267,40.60508],[-73.84194,40.60493],[-73.84243,40.60529],[-73.84297,40.60507],[-73.84282,40.60473],[-73.84338,40.60499],[-73.8439,40.60642],[-73.84405,40.60545],[-73.84361,40.6047],[-73.84407,40.60456],[-73.84461,40.60504],[-73.84469,40.60615],[-73.84411,40.60589],[-73.84458,40.6066],[-73.8453,40.60627],[-73.84494,40.60503],[-73.84582,40.60516],[-73.84627,40.60471],[-73.84747,40.60508],[-73.84727,40.60582],[-73.84591,40.60629],[-73.84618,40.60676],[-73.84663,40.60676],[-73.84635,40.60705],[-73.8464,40.6073],[-73.84689,40.60657],[-73.84622,40.60672],[-73.84644,40.60622],[-73.84965,40.60605],[-73.84962,40.60667],[-73.84755,40.60698],[-73.84682,40.60806],[-73.84486,40.60809],[-73.8455,40.60851],[-73.84628,40.60828],[-73.84539,40.60978],[-73.84573,40.61144],[-73.84486,40.61103],[-73.84564,40.61369],[-73.84473,40.61397]]],[[[-73.8337,40.62098],[-73.83402,40.61438],[-73.83777,40.61552],[-73.83527,40.61725],[-73.83496,40.61853],[-73.83571,40.61973],[-73.83489,40.61961],[-73.83531,40.62015],[-73.8349,40.62047],[-73.83439,40.61985],[-73.8338,40.61965],[-73.83447,40.62012],[-73.8337,40.62098]]],[[[-73.83478,40.62263],[-73.83362,40.6226],[-73.83401,40.62103],[-73.83499,40.62101],[-73.83478,40.62263]]],[[[-73.85023,40.62332],[-73.84939,40.62248],[-73.84846,40.62237],[-73.85085,40.62025],[-73.85655,40.61957],[-73.85676,40.62041],[-73.8574,40.6203],[-73.85657,40.62148],[-73.85517,40.62196],[-73.85451,40.6208],[-73.85185,40.62057],[-73.8514,40.6208],[-73.85129,40.62184],[-73.85236,40.62297],[-73.8519,40.62279],[-73.85133,40.62347],[-73.85023,40.62332]]],[[[-73.83359,40.62359],[-73.83371,40.62369],[-73.83364,40.62396],[-73.83356,40.62394],[-73.83359,40.62359]]],[[[-73.86212,40.62399],[-73.86304,40.6233],[-73.86378,40.62395],[-73.86206,40.62432],[-73.86212,40.62399]]],[[[-73.84589,40.62497],[-73.84477,40.62485],[-73.84478,40.62424],[-73.84384,40.62429],[-73.84389,40.62381],[-73.84294,40.62332],[-73.84537,40.62305],[-73.84521,40.62435],[-73.84589,40.62497]]],[[[-73.85777,40.62482],[-73.85784,40.62519],[-73.85733,40.62515],[-73.85742,40.62498],[-73.85777,40.62482]]],[[[-73.84048,40.6275],[-73.83947,40.62729],[-73.84072,40.62586],[-73.84238,40.62744],[-73.84045,40.62659],[-73.84015,40.62699],[-73.84048,40.6275]]],[[[-73.86873,40.61736],[-73.87395,40.61584],[-73.87798,40.6158],[-73.87952,40.61656],[-73.87978,40.61863],[-73.87938,40.61986],[-73.87779,40.62165],[-73.86645,40.62826],[-73.86519,40.62766],[-73.86473,40.62653],[-73.86651,40.62375],[-73.86638,40.623],[-73.86523,40.62189],[-73.86501,40.62055],[-73.86576,40.6185],[-73.86873,40.61736]]],[[[-73.84814,40.62854],[-73.84841,40.62857],[-73.84847,40.62879],[-73.84813,40.62884],[-73.84814,40.62854]]],[[[-73.84852,40.63056],[-73.84843,40.63046],[-73.84868,40.63046],[-73.84869,40.63061],[-73.84852,40.63056]]],[[[-73.853,40.63202],[-73.85257,40.63124],[-73.85167,40.63087],[-73.85188,40.63051],[-73.85366,40.63088],[-73.8568,40.62984],[-73.85856,40.63046],[-73.85758,40.63272],[-73.85535,40.63281],[-73.85435,40.63372],[-73.85241,40.63364],[-73.853,40.63202]]],[[[-73.84638,40.63529],[-73.84783,40.63278],[-73.84914,40.63211],[-73.85005,40.63217],[-73.84988,40.6341],[-73.84886,40.63544],[-73.84828,40.63747],[-73.84668,40.63873],[-73.84427,40.63669],[-73.84502,40.63568],[-73.84638,40.63529]]],[[[-73.9544,40.73911],[-73.94652,40.73693],[-73.9472,40.73536],[-73.94707,40.7344],[-73.9466,40.73444],[-73.94674,40.73528],[-73.94557,40.73661],[-73.945,40.73644],[-73.94519,40.73548],[-73.94452,40.73628],[-73.94239,40.73543],[-73.94115,40.73415],[-73.93981,40.73115],[-73.9381,40.72973],[-73.93493,40.72854],[-73.92924,40.7274],[-73.92787,40.72585],[-73.92561,40.72006],[-73.92482,40.72027],[-73.92458,40.71916],[-73.92499,40.71838],[-73.92888,40.71772],[-73.92971,40.71705],[-73.92947,40.71572],[-73.9322,40.71497],[-73.93124,40.71372],[-73.93264,40.71305],[-73.93203,40.71159],[-73.93328,40.71098],[-73.9319,40.71134],[-73.93036,40.70872],[-73.93155,40.71186],[-73.93078,40.71216],[-73.93161,40.71204],[-73.93185,40.71256],[-73.93042,40.71317],[-73.93085,40.7149],[-73.92844,40.71553],[-73.92891,40.71662],[-73.92823,40.71711],[-73.92465,40.71795],[-73.92364,40.71732],[-73.92306,40.71634],[-73.92489,40.71527],[-73.92434,40.71412],[-73.92223,40.71286],[-73.92155,40.71104],[-73.92075,40.71053],[-73.92189,40.7094],[-73.91181,40.70343],[-73.9129,40.70236],[-73.91068,40.70105],[-73.91181,40.69995],[-73.90426,40.6957],[-73.9058,40.69413],[-73.9014,40.69159],[-73.90189,40.69108],[-73.90042,40.68818],[-73.90116,40.68788],[-73.89647,40.68234],[-73.89417,40.68528],[-73.89258,40.68349],[-73.89015,40.685],[-73.88963,40.68424],[-73.88452,40.68668],[-73.88378,40.68786],[-73.87951,40.69115],[-73.87402,40.69419],[-73.86892,40.69515],[-73.86841,40.69473],[-73.86868,40.69403],[-73.86602,40.68192],[-73.8641,40.68237],[-73.86328,40.67908],[-73.86235,40.67916],[-73.86039,40.67125],[-73.85763,40.67166],[-73.85568,40.66387],[-73.85843,40.66345],[-73.85762,40.66012],[-73.8603,40.65963],[-73.86317,40.65828],[-73.8627,40.65762],[-73.86328,40.65694],[-73.86264,40.65567],[-73.86087,40.65508],[-73.85722,40.65028],[-73.85838,40.64727],[-73.85717,40.64368],[-73.86201,40.64289],[-73.8667,40.64002],[-73.86628,40.63947],[-73.86732,40.63987],[-73.86867,40.64093],[-73.87061,40.64486],[-73.87257,40.64558],[-73.87933,40.65462],[-73.87972,40.65438],[-73.87319,40.64545],[-73.87327,40.6439],[-73.87009,40.63984],[-73.8699,40.63893],[-73.868,40.63812],[-73.86961,40.63709],[-73.86921,40.63747],[-73.86956,40.63795],[-73.87293,40.63636],[-73.87445,40.63666],[-73.87711,40.63864],[-73.87856,40.63904],[-73.88048,40.64098],[-73.88074,40.64157],[-73.88029,40.6414],[-73.88007,40.642],[-73.88153,40.64245],[-73.88215,40.64374],[-73.88342,40.64452],[-73.88558,40.64404],[-73.88743,40.64594],[-73.88771,40.64787],[-73.88864,40.64802],[-73.89007,40.64932],[-73.891,40.64935],[-73.89108,40.64879],[-73.8888,40.64605],[-73.88941,40.64694],[-73.8882,40.64714],[-73.88864,40.64679],[-73.88808,40.64662],[-73.88829,40.64604],[-73.88741,40.64533],[-73.88806,40.64512],[-73.88734,40.64522],[-73.88624,40.64382],[-73.88374,40.64245],[-73.87954,40.63822],[-73.87864,40.63829],[-73.87858,40.63752],[-73.87714,40.63598],[-73.87821,40.63457],[-73.88364,40.63094],[-73.88345,40.62991],[-73.88405,40.62956],[-73.88263,40.62827],[-73.88369,40.62756],[-73.88513,40.62883],[-73.88753,40.62833],[-73.89042,40.62628],[-73.89149,40.62448],[-73.89301,40.62336],[-73.89548,40.62249],[-73.91606,40.63203],[-73.91748,40.63146],[-73.91659,40.63045],[-73.90396,40.62483],[-73.90386,40.62494],[-73.90546,40.62577],[-73.90533,40.62586],[-73.90255,40.62444],[-73.90327,40.62448],[-73.90283,40.62405],[-73.90242,40.62446],[-73.90229,40.62441],[-73.90287,40.62365],[-73.90105,40.62271],[-73.90053,40.62168],[-73.89812,40.62185],[-73.89647,40.62143],[-73.89561,40.6198],[-73.89664,40.61735],[-73.89586,40.61452],[-73.8925,40.61379],[-73.89095,40.61283],[-73.89141,40.61213],[-73.89396,40.61121],[-73.89189,40.61153],[-73.89108,40.61228],[-73.8897,40.61145],[-73.8903,40.61032],[-73.89227,40.60917],[-73.89273,40.60723],[-73.89335,40.60674],[-73.89834,40.6053],[-73.90014,40.6056],[-73.9011,40.60707],[-73.90028,40.61007],[-73.90141,40.61109],[-73.90137,40.6117],[-73.90249,40.61181],[-73.90119,40.61056],[-73.90133,40.61048],[-73.90265,40.61178],[-73.90236,40.61198],[-73.90272,40.61183],[-73.90304,40.6121],[-73.90242,40.61203],[-73.90717,40.61601],[-73.90674,40.6163],[-73.90726,40.61609],[-73.90711,40.61661],[-73.90753,40.61634],[-73.90724,40.61655],[-73.90762,40.6169],[-73.90879,40.61744],[-73.90863,40.61717],[-73.90907,40.61716],[-73.90835,40.61653],[-73.90879,40.61687],[-73.90914,40.61653],[-73.90797,40.61574],[-73.90918,40.61652],[-73.90896,40.61699],[-73.9096,40.61639],[-73.90226,40.61042],[-73.90164,40.60576],[-73.90524,40.60491],[-73.90597,40.60638],[-73.9081,40.60628],[-73.90864,40.60666],[-73.90985,40.606],[-73.90833,40.60407],[-73.91092,40.60351],[-73.91365,40.60398],[-73.91674,40.60681],[-73.91632,40.60868],[-73.91678,40.60877],[-73.91657,40.60942],[-73.91684,40.60876],[-73.91651,40.60863],[-73.91709,40.60882],[-73.91616,40.61052],[-73.9145,40.61165],[-73.91493,40.61396],[-73.91386,40.61464],[-73.91422,40.61493],[-73.91642,40.61357],[-73.91591,40.61385],[-73.91573,40.61362],[-73.91577,40.61354],[-73.91625,40.61363],[-73.91575,40.61338],[-73.9164,40.61345],[-73.91587,40.61291],[-73.91663,40.61344],[-73.91573,40.61183],[-73.91811,40.61021],[-73.91787,40.60933],[-73.91768,40.60966],[-73.91796,40.60879],[-73.91782,40.6093],[-73.91856,40.6085],[-73.91801,40.60815],[-73.91901,40.60827],[-73.91814,40.60765],[-73.91902,40.60826],[-73.91935,40.60804],[-73.91825,40.60723],[-73.91937,40.60803],[-73.91952,40.60774],[-73.91443,40.60286],[-73.91364,40.60252],[-73.91347,40.60291],[-73.9135,40.60237],[-73.91302,40.60275],[-73.91348,40.60235],[-73.91312,40.60222],[-73.91271,40.60269],[-73.91306,40.60221],[-73.91158,40.60214],[-73.91158,40.60222],[-73.91231,40.60228],[-73.91254,40.60236],[-73.91154,40.60244],[-73.91261,40.60253],[-73.91257,40.60268],[-73.91087,40.60249],[-73.91156,40.60216],[-73.91076,40.60203],[-73.91075,40.60244],[-73.90904,40.60268],[-73.91071,40.60242],[-73.90941,40.60219],[-73.91073,40.60202],[-73.90904,40.60163],[-73.90784,40.60227],[-73.90373,40.60242],[-73.89933,40.60355],[-73.89562,40.60301],[-73.89241,40.6033],[-73.88773,40.60527],[-73.88478,40.60514],[-73.88396,40.60555],[-73.88272,40.60418],[-73.88336,40.60288],[-73.88181,40.59937],[-73.87991,40.59205],[-73.87942,40.59213],[-73.8799,40.59202],[-73.87971,40.5914],[-73.87897,40.5909],[-73.87929,40.59066],[-73.87879,40.58803],[-73.87672,40.58491],[-73.8797,40.58014],[-73.88174,40.57959],[-73.88175,40.57916],[-73.88614,40.57813],[-73.89118,40.57787],[-73.89552,40.57677],[-73.89651,40.57901],[-73.89675,40.58319],[-73.89816,40.58535],[-73.89826,40.58679],[-73.89892,40.58754],[-73.89973,40.58717],[-73.89903,40.58767],[-73.89981,40.58801],[-73.89991,40.58779],[-73.90122,40.58738],[-73.89995,40.58804],[-73.90072,40.58808],[-73.90427,40.58691],[-73.90652,40.58803],[-73.90713,40.58753],[-73.90644,40.58703],[-73.91153,40.58611],[-73.91197,40.5867],[-73.91205,40.58874],[-73.91144,40.59108],[-73.91203,40.59437],[-73.91574,40.59921],[-73.92171,40.60174],[-73.92297,40.60111],[-73.92394,40.59971],[-73.92466,40.59973],[-73.92954,40.60275],[-73.92917,40.60387],[-73.931,40.60394],[-73.93212,40.60271],[-73.93109,40.60172],[-73.92965,40.6012],[-73.92923,40.60049],[-73.92742,40.60006],[-73.9229,40.59645],[-73.92178,40.59503],[-73.92034,40.59473],[-73.91818,40.59311],[-73.91641,40.59114],[-73.91488,40.59031],[-73.91454,40.5889],[-73.91917,40.58596],[-73.92493,40.58567],[-73.92721,40.58772],[-73.92765,40.58746],[-73.92736,40.58802],[-73.92792,40.58755],[-73.92808,40.5877],[-73.9274,40.58821],[-73.9279,40.58795],[-73.92802,40.58807],[-73.92745,40.5883],[-73.92776,40.58866],[-73.92395,40.59114],[-73.9246,40.5912],[-73.92863,40.58857],[-73.92867,40.58914],[-73.92922,40.58881],[-73.92876,40.58915],[-73.93003,40.58943],[-73.93065,40.59029],[-73.93035,40.59255],[-73.92971,40.59312],[-73.93004,40.59306],[-73.92996,40.59401],[-73.93008,40.5936],[-73.93043,40.5944],[-73.93176,40.59428],[-73.93078,40.5945],[-73.9326,40.59493],[-73.93268,40.59424],[-73.93114,40.59201],[-73.9314,40.5918],[-73.93101,40.59193],[-73.93156,40.59129],[-73.93121,40.58953],[-73.93069,40.58882],[-73.93009,40.58899],[-73.93065,40.58867],[-73.9304,40.58847],[-73.92973,40.58861],[-73.93039,40.58844],[-73.92972,40.58756],[-73.93135,40.58733],[-73.93125,40.58685],[-73.92857,40.58706],[-73.92808,40.5867],[-73.92816,40.58586],[-73.92737,40.58601],[-73.92759,40.58625],[-73.92752,40.5864],[-73.92529,40.58464],[-73.9202,40.58463],[-73.91566,40.58622],[-73.9135,40.5861],[-73.91259,40.58557],[-73.91246,40.58335],[-73.91463,40.58276],[-73.91499,40.58315],[-73.91614,40.58286],[-73.9173,40.58319],[-73.91541,40.58236],[-73.91191,40.58296],[-73.91129,40.58231],[-73.91148,40.58183],[-73.91506,40.58154],[-73.92444,40.58356],[-73.92963,40.5834],[-73.93118,40.58272],[-73.93613,40.58331],[-73.9361,40.58295],[-73.93658,40.58324],[-73.93697,40.58323],[-73.93663,40.58297],[-73.93706,40.58298],[-73.93705,40.58308],[-73.93763,40.5831],[-73.93703,40.58313],[-73.93701,40.58302],[-73.93701,40.58323],[-73.93712,40.58335],[-73.94103,40.58307],[-73.94157,40.58361],[-73.94255,40.58351],[-73.94202,40.58311],[-73.9427,40.58351],[-73.94305,40.58349],[-73.94256,40.58313],[-73.94629,40.58357],[-73.9458,40.58319],[-73.94643,40.58356],[-73.94679,40.58355],[-73.94632,40.58321],[-73.94692,40.58355],[-73.94727,40.58353],[-73.94682,40.58319],[-73.94747,40.58353],[-73.95349,40.58299],[-73.9533,40.582],[-73.9497,40.58232],[-73.94274,40.581],[-73.93258,40.58126],[-73.93106,40.57616],[-73.9315,40.57566],[-73.93489,40.57522],[-73.93647,40.57586],[-73.93672,40.57542],[-73.94251,40.57537],[-73.94439,40.57579],[-73.9446,40.57524],[-73.94572,40.57556],[-73.94618,40.5753],[-73.94592,40.57512],[-73.95258,40.5742],[-73.95569,40.57433],[-73.95635,40.57421],[-73.95635,40.5738],[-73.95657,40.57417],[-73.95843,40.57409],[-73.95897,40.57395],[-73.95899,40.57343],[-73.9591,40.57386],[-73.95983,40.57393],[-73.9672,40.57333],[-73.96945,40.57286],[-73.96925,40.5723],[-73.96976,40.57285],[-73.97133,40.57264],[-73.97118,40.57194],[-73.97161,40.57263],[-73.97293,40.57247],[-73.97335,40.57232],[-73.97325,40.57163],[-73.97345,40.57227],[-73.97529,40.57205],[-73.97541,40.57142],[-73.97568,40.57196],[-73.97713,40.5719],[-73.97766,40.57173],[-73.97767,40.57117],[-73.97808,40.57123],[-73.97772,40.57125],[-73.97781,40.57176],[-73.97845,40.57189],[-73.97985,40.57154],[-73.97943,40.57122],[-73.97977,40.57124],[-73.98001,40.57171],[-73.98204,40.57148],[-73.98157,40.57125],[-73.98283,40.57154],[-73.98367,40.57141],[-73.9834,40.57017],[-73.98304,40.57015],[-73.98336,40.56953],[-73.98384,40.57011],[-73.98349,40.57016],[-73.98376,40.5714],[-73.99026,40.57071],[-73.99079,40.57025],[-73.99119,40.57061],[-73.99519,40.57002],[-74.00078,40.57049],[-74.00201,40.57021],[-74.00209,40.56959],[-74.00249,40.57174],[-74.0048,40.57288],[-74.01116,40.57417],[-74.01202,40.57489],[-74.01303,40.57785],[-74.01189,40.57974],[-74.00745,40.5818],[-74.00056,40.5813],[-73.99818,40.58173],[-73.99772,40.58071],[-73.98843,40.57882],[-73.9867,40.57981],[-73.98702,40.58002],[-73.98589,40.58114],[-73.98605,40.58172],[-73.98804,40.57963],[-73.99163,40.58108],[-73.99183,40.58174],[-73.99026,40.58462],[-73.99547,40.58221],[-74.00018,40.58307],[-74.00036,40.58419],[-73.99809,40.58536],[-73.99971,40.58569],[-73.99957,40.58624],[-73.99815,40.58653],[-73.99408,40.58869],[-73.99796,40.58727],[-73.99488,40.58877],[-73.99535,40.58933],[-74.00037,40.58647],[-74.00038,40.58713],[-73.99788,40.58834],[-73.99867,40.5892],[-73.99946,40.58923],[-73.99838,40.58977],[-73.99884,40.58963],[-73.99844,40.58986],[-73.99878,40.59031],[-73.99711,40.59128],[-73.99719,40.59161],[-73.99806,40.59121],[-73.99728,40.59171],[-73.99755,40.59192],[-73.99946,40.5911],[-74.00023,40.59148],[-73.99903,40.59231],[-73.99948,40.59297],[-73.99839,40.59353],[-74.0011,40.59252],[-74.00411,40.59645],[-74.01066,40.6006],[-74.01473,40.60207],[-74.01914,40.60261],[-74.02086,40.60352],[-74.03005,40.60476],[-74.03271,40.60633],[-74.03604,40.6093],[-74.03696,40.61126],[-74.04013,40.61479],[-74.04162,40.62056],[-74.04189,40.62432],[-74.04106,40.63019],[-74.03681,40.63898],[-74.03876,40.63959],[-74.03672,40.63914],[-74.03571,40.64064],[-74.0367,40.64169],[-74.03407,40.64431],[-74.0323,40.64358],[-74.03254,40.64383],[-74.0319,40.64389],[-74.03052,40.64527],[-74.02908,40.6444],[-74.02915,40.64458],[-74.02886,40.64487],[-74.02909,40.64458],[-74.02819,40.64441],[-74.02821,40.64402],[-74.02605,40.64626],[-74.02974,40.64849],[-74.02939,40.6488],[-74.02572,40.64662],[-74.02507,40.64673],[-74.02415,40.64762],[-74.02513,40.64832],[-74.02554,40.64978],[-74.02484,40.6506],[-74.02605,40.65099],[-74.02553,40.65148],[-74.02477,40.65069],[-74.02424,40.65113],[-74.02542,40.65193],[-74.02418,40.65119],[-74.02285,40.65117],[-74.02537,40.65272],[-74.02125,40.65083],[-74.02105,40.6511],[-74.02234,40.65191],[-74.0209,40.65125],[-74.02381,40.65304],[-74.02196,40.65222],[-74.02119,40.65284],[-74.0232,40.6541],[-74.02163,40.65365],[-74.02115,40.65421],[-74.02164,40.65488],[-74.01873,40.65347],[-74.01812,40.65389],[-74.02005,40.65534],[-74.01787,40.65406],[-74.01715,40.65478],[-74.0198,40.65649],[-74.01727,40.65519],[-74.01665,40.65534],[-74.01639,40.65562],[-74.01911,40.65737],[-74.01861,40.65785],[-74.01585,40.65621],[-74.01544,40.65663],[-74.01774,40.6581],[-74.01769,40.65845],[-74.01505,40.65695],[-74.01442,40.65761],[-74.01746,40.65945],[-74.01554,40.66076],[-74.01184,40.65891],[-74.01111,40.65971],[-74.01402,40.66153],[-74.01265,40.66198],[-74.0086,40.65952],[-74.00746,40.66056],[-74.01037,40.6624],[-74.00955,40.66327],[-74.00868,40.66337],[-74.00616,40.66185],[-74.00569,40.66227],[-74.00428,40.66144],[-74.00623,40.66279],[-74.00592,40.66311],[-74.00381,40.66191],[-74.00349,40.66224],[-74.006,40.66326],[-74.00561,40.66346],[-74.00767,40.66479],[-74.00713,40.66492],[-74.00652,40.66455],[-74.00688,40.66434],[-74.00584,40.66414],[-74.00605,40.66384],[-74.00576,40.66392],[-74.00564,40.66453],[-74.00565,40.6639],[-74.00363,40.66273],[-74.0034,40.66299],[-74.00528,40.66466],[-74.00486,40.66506],[-74.00114,40.6629],[-73.99953,40.6644],[-74.00292,40.66646],[-74.00069,40.66755],[-73.99998,40.66745],[-73.99903,40.66844],[-73.99877,40.6716],[-74.0003,40.66872],[-74.00222,40.66858],[-74.00289,40.66735],[-74.00586,40.66799],[-74.00684,40.66606],[-74.00696,40.66605],[-74.00475,40.67072],[-74.00544,40.67092],[-74.00755,40.66705],[-74.00709,40.66859],[-74.00985,40.66852],[-74.01154,40.66509],[-74.01575,40.66457],[-74.0169,40.66485],[-74.01789,40.66585],[-74.01858,40.67039],[-74.01934,40.67162],[-74.01751,40.67103],[-74.01649,40.66493],[-74.01603,40.66486],[-74.01594,40.66547],[-74.01228,40.66573],[-74.01034,40.66908],[-74.01154,40.66978],[-74.01163,40.67058],[-74.01425,40.66973],[-74.01175,40.67066],[-74.01427,40.67138],[-74.0152,40.67075],[-74.01387,40.67188],[-74.01423,40.67213],[-74.01569,40.67104],[-74.01298,40.67333],[-74.01336,40.67359],[-74.01512,40.67216],[-74.01632,40.67291],[-74.01458,40.67441],[-74.01496,40.67468],[-74.01817,40.67194],[-74.0188,40.67225],[-74.01727,40.67361],[-74.01801,40.67391],[-74.01783,40.67526],[-74.01889,40.67509],[-74.01792,40.67651],[-74.01977,40.67661],[-74.01995,40.6771],[-74.01908,40.67714],[-74.01918,40.67783],[-74.01843,40.67791],[-74.01841,40.67841],[-74.01966,40.67839],[-74.01827,40.67855],[-74.01858,40.67898],[-74.01954,40.67897],[-74.01928,40.67965],[-74.01282,40.68362],[-74.01213,40.68291],[-74.01411,40.68171],[-74.01302,40.68041],[-74.00967,40.68327],[-74.01077,40.68436],[-74.01193,40.68389],[-74.00798,40.68628],[-74.00588,40.6862],[-74.00298,40.69043],[-74.00096,40.69013],[-74.0007,40.69061],[-74.00197,40.69184],[-74.00174,40.69241],[-73.99947,40.6967],[-73.99887,40.69692],[-73.99724,40.70014],[-73.99466,40.70343],[-73.995,40.70365],[-73.99457,40.70438],[-73.99213,40.70469],[-73.99186,40.70409],[-73.99095,40.70403],[-73.99023,40.70493],[-73.9883,40.70454],[-73.98796,40.70513],[-73.98653,40.70498],[-73.98643,40.70535],[-73.98344,40.70564],[-73.98093,40.70537],[-73.98091,40.70591],[-73.97905,40.70597],[-73.97924,40.70555],[-73.97882,40.70586],[-73.97868,40.70545],[-73.97839,40.70597],[-73.97885,40.70607],[-73.97834,40.706],[-73.97853,40.70488],[-73.97721,40.70421],[-73.97751,40.7032],[-73.97714,40.70301],[-73.97596,40.70472],[-73.97693,40.7028],[-73.97616,40.70217],[-73.97533,40.70295],[-73.97601,40.70195],[-73.97455,40.70159],[-73.97572,40.69957],[-73.97412,40.70131],[-73.97239,40.70017],[-73.97376,40.70153],[-73.97319,40.70167],[-73.97078,40.69998],[-73.97332,40.70241],[-73.97284,40.70273],[-73.96983,40.70025],[-73.96949,40.70052],[-73.97284,40.70335],[-73.96925,40.70136],[-73.96899,40.70175],[-73.97231,40.70384],[-73.9711,40.70346],[-73.97102,40.70382],[-73.97466,40.70607],[-73.97439,40.70633],[-73.97339,40.70573],[-73.97255,40.7062],[-73.97463,40.70768],[-73.97424,40.70802],[-73.9711,40.70585],[-73.97106,40.70695],[-73.97276,40.70883],[-73.97232,40.70908],[-73.97026,40.70689],[-73.97018,40.70493],[-73.96752,40.70344],[-73.96748,40.70395],[-73.9693,40.70509],[-73.96929,40.70709],[-73.96994,40.7093],[-73.96961,40.71027],[-73.97007,40.71045],[-73.96937,40.71102],[-73.96991,40.71127],[-73.96923,40.71124],[-73.96725,40.71699],[-73.96512,40.71923],[-73.96528,40.72012],[-73.96448,40.72004],[-73.96276,40.7224],[-73.96166,40.72486],[-73.96211,40.72515],[-73.95794,40.72465],[-73.95843,40.7254],[-73.96012,40.72532],[-73.96029,40.72595],[-73.96162,40.72587],[-73.96102,40.7287],[-73.96229,40.73405],[-73.95983,40.73706],[-73.95838,40.7381],[-73.95693,40.73889],[-73.9544,40.73911]]]]}},{"type":"Feature","properties":{"name":"Queens","slug":"queens"},"geometry":{"type":"MultiPolygon","coordinates":[[[[-73.82645,40.59053],[-73.8269,40.58993],[-73.82762,40.59],[-73.82769,40.59057],[-73.82705,40.59098],[-73.82729,40.59148],[-73.82548,40.59197],[-73.82633,40.59146],[-73.82645,40.59053]]],[[[-73.83193,40.59345],[-73.83117,40.59149],[-73.83357,40.58904],[-73.83459,40.58912],[-73.83688,40.58952],[-73.8388,40.5912],[-73.8384,40.59039],[-73.8418,40.59201],[-73.84336,40.59347],[-73.8435,40.59508],[-73.84057,40.5973],[-73.83746,40.59686],[-73.83476,40.59394],[-73.83193,40.59345]]],[[[-73.80997,40.60007],[-73.81049,40.59878],[-73.81158,40.59814],[-73.81222,40.59855],[-73.81501,40.60206],[-73.8148,40.60408],[-73.81321,40.60436],[-73.81017,40.6028],[-73.80997,40.60007]]],[[[-73.80032,40.60706],[-73.79793,40.60658],[-73.79841,40.60601],[-73.79827,40.60549],[-73.79868,40.6057],[-73.80011,40.60532],[-73.79871,40.60562],[-73.79781,40.60516],[-73.79804,40.60484],[-73.79877,40.60502],[-73.79994,40.60461],[-73.80021,40.60483],[-73.80049,40.60476],[-73.80005,40.60456],[-73.7979,40.60472],[-73.79766,40.60531],[-73.79822,40.60594],[-73.79766,40.60636],[-73.79635,40.60579],[-73.79669,40.60511],[-73.79611,40.60469],[-73.79732,40.60407],[-73.80381,40.60436],[-73.80338,40.6047],[-73.80394,40.60564],[-73.80314,40.60637],[-73.80182,40.60642],[-73.80077,40.60708],[-73.801,40.60659],[-73.80064,40.60633],[-73.80103,40.60648],[-73.80107,40.60641],[-73.8007,40.60624],[-73.80034,40.60628],[-73.80085,40.60664],[-73.80032,40.60706]]],[[[-73.82953,40.60724],[-73.82961,40.60726],[-73.82957,40.60734],[-73.82952,40.60734],[-73.82953,40.60724]]],[[[-73.79666,40.60896],[-73.79601,40.60822],[-73.79655,40.60729],[-73.79582,40.60813],[-73.79552,40.60735],[-73.79528,40.60581],[-73.79573,40.60523],[-73.79603,40.6053],[-73.7957,40.60646],[-73.79675,40.60623],[-73.7979,40.60687],[-73.80053,40.60723],[-73.80401,40.60613],[-73.80308,40.60747],[-73.80099,40.60867],[-73.79666,40.60896]]],[[[-73.8273,40.60949],[-73.82581,40.60892],[-73.82577,40.60785],[-73.82679,40.60791],[-73.82567,40.60779],[-73.82461,40.60474],[-73.82909,40.60582],[-73.8294,40.60658],[-73.82904,40.60736],[-73.82708,40.60833],[-73.8276,40.6093],[-73.8273,40.60949]]],[[[-73.83213,40.60952],[-73.83122,40.60883],[-73.83131,40.60841],[-73.83006,40.60792],[-73.82988,40.60632],[-73.83178,40.60509],[-73.83552,40.60546],[-73.83574,40.60579],[-73.83423,40.60805],[-73.83213,40.60952]]],[[[-73.76669,40.61425],[-73.76516,40.61375],[-73.76506,40.61204],[-73.7623,40.61136],[-73.76172,40.61185],[-73.76024,40.61082],[-73.76178,40.60915],[-73.76155,40.60903],[-73.75998,40.61088],[-73.75949,40.61082],[-73.75972,40.61015],[-73.75561,40.61008],[-73.75587,40.61039],[-73.755,40.61013],[-73.74799,40.61231],[-73.74722,40.61218],[-73.74686,40.61157],[-73.74576,40.61199],[-73.74311,40.60772],[-73.7434,40.60747],[-73.7384,40.60312],[-73.73836,40.5976],[-73.73872,40.59695],[-73.73858,40.59725],[-73.73993,40.59705],[-73.7401,40.59621],[-73.74064,40.597],[-73.74183,40.5967],[-73.73993,40.59606],[-73.73946,40.59688],[-73.73975,40.59654],[-73.7398,40.59688],[-73.73951,40.59704],[-73.7394,40.59705],[-73.73895,40.59676],[-73.73838,40.59712],[-73.73799,40.59456],[-73.7409,40.59449],[-73.74223,40.59491],[-73.74666,40.5943],[-73.74913,40.59322],[-73.75169,40.59131],[-73.75345,40.59096],[-73.75595,40.59087],[-73.76134,40.59173],[-73.76797,40.59073],[-73.77584,40.59032],[-73.78878,40.58745],[-73.79201,40.58722],[-73.80799,40.584],[-73.81352,40.58347],[-73.83387,40.57765],[-73.8572,40.5691],[-73.86287,40.56683],[-73.86269,40.5665],[-73.86356,40.56703],[-73.86661,40.56609],[-73.86631,40.56555],[-73.86686,40.56609],[-73.86849,40.56553],[-73.86825,40.56507],[-73.86853,40.56555],[-73.86925,40.56538],[-73.87062,40.56481],[-73.87028,40.56417],[-73.87091,40.56476],[-73.87264,40.56408],[-73.87238,40.56358],[-73.87321,40.56406],[-73.88029,40.56137],[-73.88325,40.56086],[-73.88698,40.5594],[-73.88789,40.55951],[-73.89214,40.55787],[-73.89347,40.55795],[-73.89492,40.55708],[-73.89551,40.55741],[-73.89708,40.55666],[-73.898,40.5571],[-73.90059,40.55642],[-73.90279,40.55673],[-73.90691,40.5556],[-73.94047,40.54286],[-73.94074,40.54183],[-73.94013,40.54801],[-73.94027,40.55241],[-73.93925,40.55498],[-73.93647,40.55693],[-73.93178,40.5579],[-73.92616,40.56155],[-73.91766,40.56283],[-73.91455,40.56435],[-73.91188,40.56499],[-73.91216,40.56584],[-73.91197,40.56587],[-73.91186,40.565],[-73.91004,40.56479],[-73.90977,40.56531],[-73.90972,40.56529],[-73.90976,40.56428],[-73.90792,40.56415],[-73.90799,40.56344],[-73.90665,40.56279],[-73.90469,40.56283],[-73.90287,40.56351],[-73.90245,40.5629],[-73.90161,40.56275],[-73.89613,40.56536],[-73.89534,40.56633],[-73.89567,40.56703],[-73.89519,40.56691],[-73.89261,40.56859],[-73.88911,40.56792],[-73.88431,40.5687],[-73.88489,40.56847],[-73.8843,40.56844],[-73.88474,40.56827],[-73.88446,40.56789],[-73.88379,40.56812],[-73.88402,40.5685],[-73.88358,40.56821],[-73.8839,40.56891],[-73.88337,40.56833],[-73.87781,40.5688],[-73.85306,40.58126],[-73.85044,40.58213],[-73.84521,40.58158],[-73.83935,40.58186],[-73.83855,40.58279],[-73.83584,40.58288],[-73.82852,40.58485],[-73.82804,40.58605],[-73.82481,40.58715],[-73.82294,40.58749],[-73.82146,40.58677],[-73.81742,40.58892],[-73.81764,40.58929],[-73.81363,40.59079],[-73.81326,40.59105],[-73.81359,40.5917],[-73.81323,40.59107],[-73.8117,40.59159],[-73.81149,40.5929],[-73.81133,40.59174],[-73.81082,40.59209],[-73.81139,40.59244],[-73.81141,40.59287],[-73.81107,40.59302],[-73.81137,40.5927],[-73.81075,40.59279],[-73.81136,40.59246],[-73.81094,40.59255],[-73.81081,40.59209],[-73.8099,40.59227],[-73.81004,40.59308],[-73.80973,40.5924],[-73.80961,40.59358],[-73.80603,40.59201],[-73.80575,40.59076],[-73.80582,40.59189],[-73.80434,40.59131],[-73.80417,40.59185],[-73.80782,40.59337],[-73.80798,40.59416],[-73.80711,40.59528],[-73.80604,40.59555],[-73.80411,40.59432],[-73.80381,40.59289],[-73.80244,40.59264],[-73.80251,40.59395],[-73.80314,40.59376],[-73.80318,40.59395],[-73.80257,40.59427],[-73.80324,40.59409],[-73.80329,40.59428],[-73.80235,40.5945],[-73.80344,40.59443],[-73.8032,40.59468],[-73.80338,40.59487],[-73.80366,40.59473],[-73.80372,40.59482],[-73.80321,40.59515],[-73.80391,40.595],[-73.80331,40.59518],[-73.80511,40.59715],[-73.80298,40.59884],[-73.80092,40.59939],[-73.79457,40.59942],[-73.79233,40.59997],[-73.78786,40.60311],[-73.78635,40.60319],[-73.78793,40.601],[-73.79033,40.5992],[-73.79124,40.59663],[-73.79086,40.59501],[-73.79042,40.59475],[-73.79057,40.59495],[-73.79081,40.59609],[-73.79059,40.59611],[-73.79015,40.59477],[-73.79042,40.59605],[-73.79018,40.59607],[-73.79013,40.59482],[-73.78976,40.59474],[-73.79,40.59621],[-73.7894,40.59495],[-73.78907,40.59802],[-73.78597,40.60032],[-73.78539,40.60152],[-73.78351,40.60256],[-73.78313,40.60376],[-73.78395,40.60482],[-73.78367,40.60532],[-73.77857,40.60964],[-73.77535,40.60974],[-73.77422,40.60889],[-73.77481,40.6084],[-73.77422,40.60764],[-73.7746,40.60742],[-73.77485,40.60802],[-73.77524,40.60855],[-73.77601,40.60919],[-73.77459,40.6073],[-73.77519,40.6045],[-73.77469,40.60432],[-73.77588,40.60347],[-73.77605,40.60275],[-73.77569,40.60281],[-73.77837,40.60084],[-73.77818,40.60039],[-73.78011,40.60073],[-73.78191,40.59911],[-73.78133,40.59775],[-73.78006,40.59688],[-73.77742,40.59881],[-73.776,40.60139],[-73.77497,40.60174],[-73.77359,40.59812],[-73.76948,40.59826],[-73.76812,40.59782],[-73.76827,40.59833],[-73.77093,40.59886],[-73.77116,40.59942],[-73.77084,40.60181],[-73.77019,40.60275],[-73.77057,40.60484],[-73.77001,40.60534],[-73.77001,40.60723],[-73.769,40.60939],[-73.76982,40.61009],[-73.77125,40.61039],[-73.77223,40.6115],[-73.7734,40.61109],[-73.77296,40.61015],[-73.77394,40.61212],[-73.77417,40.61183],[-73.77339,40.61368],[-73.76669,40.61425]]],[[[-73.76672,40.615],[-73.77088,40.61586],[-73.76855,40.62056],[-73.76746,40.62051],[-73.76672,40.615]]],[[[-73.81252,40.6202],[-73.81269,40.62046],[-73.81261,40.62065],[-73.81252,40.62045],[-73.81252,40.6202]]],[[[-73.83191,40.62418],[-73.8331,40.62241],[-73.83311,40.62168],[-73.83368,40.62138],[-73.83362,40.6226],[-73.83308,40.62276],[-73.83323,40.62336],[-73.83268,40.62391],[-73.83341,40.62355],[-73.83356,40.62394],[-73.83216,40.62469],[-73.83191,40.62418]]],[[[-73.81223,40.6253],[-73.81244,40.6244],[-73.81168,40.62365],[-73.81252,40.62354],[-73.81301,40.62226],[-73.81303,40.62386],[-73.81448,40.62547],[-73.81249,40.62654],[-73.81199,40.62602],[-73.81223,40.6253]]],[[[-73.79882,40.62533],[-73.79782,40.62445],[-73.79875,40.62508],[-73.80037,40.62411],[-73.79923,40.62419],[-73.79868,40.62343],[-73.80016,40.61963],[-73.80112,40.6197],[-73.80206,40.62079],[-73.80131,40.61854],[-73.80187,40.61677],[-73.80347,40.6144],[-73.80362,40.61602],[-73.8059,40.61962],[-73.80564,40.61989],[-73.80641,40.62111],[-73.80641,40.62234],[-73.80542,40.62379],[-73.80163,40.6256],[-73.79906,40.62658],[-73.79759,40.6261],[-73.79882,40.62533]]],[[[-73.81429,40.62914],[-73.81467,40.6275],[-73.81532,40.62776],[-73.81645,40.62984],[-73.81597,40.63038],[-73.81528,40.63023],[-73.81429,40.62914]]],[[[-73.83598,40.63222],[-73.83506,40.63184],[-73.83506,40.63173],[-73.83594,40.63135],[-73.83598,40.63222]]],[[[-73.82338,40.63899],[-73.82185,40.63204],[-73.82067,40.62891],[-73.8201,40.62782],[-73.81826,40.627],[-73.81789,40.62591],[-73.81623,40.62469],[-73.81675,40.62395],[-73.81795,40.62409],[-73.81866,40.62288],[-73.81758,40.62176],[-73.81672,40.62157],[-73.81621,40.62209],[-73.81539,40.6215],[-73.81543,40.62012],[-73.81718,40.61927],[-73.81777,40.6175],[-73.81643,40.61428],[-73.81408,40.61456],[-73.81468,40.61398],[-73.81486,40.6143],[-73.8155,40.61404],[-73.8148,40.61319],[-73.81504,40.61298],[-73.81547,40.61334],[-73.81616,40.61294],[-73.8154,40.61038],[-73.8145,40.61106],[-73.81521,40.60982],[-73.81476,40.60846],[-73.81553,40.60616],[-73.81596,40.60626],[-73.81643,40.60522],[-73.81739,40.60516],[-73.81725,40.60394],[-73.81831,40.60134],[-73.81849,40.59939],[-73.8212,40.59471],[-73.82414,40.59463],[-73.82548,40.59508],[-73.83322,40.59422],[-73.83425,40.59466],[-73.83485,40.59554],[-73.8342,40.59666],[-73.83239,40.5978],[-73.83154,40.59795],[-73.83063,40.59743],[-73.82948,40.59813],[-73.82806,40.59768],[-73.82598,40.59947],[-73.82557,40.59855],[-73.82465,40.59815],[-73.82396,40.59888],[-73.82452,40.59895],[-73.82477,40.59839],[-73.82453,40.59913],[-73.82408,40.59891],[-73.82377,40.60004],[-73.82147,40.59999],[-73.82444,40.60034],[-73.82445,40.6008],[-73.82354,40.60156],[-73.82362,40.60229],[-73.82294,40.60258],[-73.82247,40.60552],[-73.8229,40.60585],[-73.82126,40.607],[-73.82003,40.60892],[-73.81962,40.61048],[-73.82058,40.61223],[-73.82128,40.6111],[-73.82056,40.60995],[-73.82161,40.60848],[-73.82186,40.60987],[-73.82289,40.61034],[-73.82556,40.61413],[-73.82726,40.61338],[-73.82788,40.6137],[-73.8275,40.6142],[-73.83092,40.61501],[-73.83402,40.61438],[-73.8337,40.62098],[-73.83159,40.62203],[-73.83268,40.62186],[-73.83259,40.62268],[-73.83039,40.62239],[-73.8302,40.6234],[-73.82919,40.6242],[-73.83011,40.62383],[-73.83041,40.62263],[-73.83088,40.62286],[-73.8306,40.62326],[-73.83046,40.62407],[-73.8311,40.62293],[-73.83213,40.62318],[-73.83097,40.62458],[-73.83134,40.62501],[-73.83077,40.6253],[-73.83063,40.62618],[-73.83082,40.62681],[-73.8323,40.62708],[-73.83229,40.62813],[-73.83178,40.62817],[-73.83157,40.62848],[-73.83162,40.62875],[-73.83189,40.62818],[-73.83263,40.62827],[-73.83301,40.62792],[-73.83304,40.62826],[-73.83196,40.62965],[-73.83115,40.63284],[-73.83341,40.6385],[-73.83222,40.63893],[-73.82809,40.63588],[-73.82592,40.63575],[-73.82443,40.63622],[-73.82414,40.63879],[-73.82457,40.63935],[-73.82419,40.63995],[-73.82338,40.63899]]],[[[-73.85722,40.65028],[-73.86001,40.65397],[-73.86099,40.65521],[-73.85979,40.65448],[-73.85898,40.65268],[-73.85732,40.65124],[-73.85722,40.65028]]],[[[-73.83033,40.65513],[-73.83027,40.65543],[-73.82989,40.65552],[-73.82995,40.65542],[-73.83033,40.65513]]],[[[-73.74461,40.77895],[-73.74429,40.77875],[-73.74481,40.77856],[-73.74506,40.77914],[-73.74461,40.77895]]],[[[-73.74672,40.78031],[-73.74559,40.77958],[-73.74682,40.77937],[-73.74724,40.78008],[-73.74672,40.78031]]],[[[-73.87287,40.78598],[-73.87283,40.78595],[-73.87277,40.78594],[-73.87281,40.7859],[-73.87287,40.78598]]],[[[-73.8205,40.80101],[-73.81721,40.79921],[-73.81657,40.79941],[-73.81682,40.7991],[-73.81646,40.79935],[-73.81668,40.79906],[-73.81611,40.79861],[-73.81577,40.79902],[-73.81608,40.79857],[-73.81368,40.79755],[-73.8137,40.79708],[-73.81335,40.79767],[-73.8135,40.79694],[-73.81224,40.79813],[-73.81161,40.79737],[-73.80636,40.79639],[-73.80623,40.79682],[-73.80633,40.79639],[-73.8054,40.79617],[-73.80532,40.79651],[-73.80534,40.79616],[-73.80435,40.79621],[-73.80427,40.79664],[-73.80417,40.79623],[-73.80411,40.79668],[-73.80387,40.79631],[-73.8034,40.79691],[-73.80346,40.79647],[-73.80321,40.79708],[-73.80258,40.7963],[-73.80013,40.79645],[-73.7979,40.79556],[-73.79767,40.79599],[-73.79758,40.79597],[-73.79787,40.79555],[-73.79674,40.79521],[-73.79649,40.79565],[-73.7965,40.79512],[-73.7946,40.79494],[-73.79432,40.79358],[-73.79494,40.79175],[-73.79375,40.78906],[-73.79338,40.78958],[-73.79362,40.789],[-73.79281,40.78878],[-73.79028,40.79032],[-73.78568,40.79034],[-73.78253,40.79128],[-73.78434,40.79175],[-73.78175,40.79113],[-73.78108,40.79168],[-73.78078,40.79299],[-73.78166,40.79348],[-73.78072,40.79333],[-73.78079,40.79404],[-73.7819,40.7949],[-73.78326,40.79492],[-73.782,40.79498],[-73.78154,40.79566],[-73.77936,40.79669],[-73.77687,40.79645],[-73.77431,40.79443],[-73.77363,40.79275],[-73.77236,40.79154],[-73.77213,40.79018],[-73.77063,40.78846],[-73.77174,40.78746],[-73.77427,40.78676],[-73.77634,40.78849],[-73.77426,40.78665],[-73.77408,40.78592],[-73.7682,40.77944],[-73.76702,40.78009],[-73.76678,40.77981],[-73.76816,40.7794],[-73.7651,40.7738],[-73.75894,40.76833],[-73.75864,40.76736],[-73.75494,40.76609],[-73.75219,40.76383],[-73.75107,40.76176],[-73.74861,40.76093],[-73.74754,40.75986],[-73.74656,40.75934],[-73.74628,40.7578],[-73.74613,40.75768],[-73.74576,40.75784],[-73.74466,40.75656],[-73.74487,40.7572],[-73.74576,40.75791],[-73.74631,40.75805],[-73.74636,40.75929],[-73.74854,40.76139],[-73.75004,40.76158],[-73.75123,40.76252],[-73.7517,40.76365],[-73.75507,40.76753],[-73.75439,40.76875],[-73.75557,40.77153],[-73.75438,40.77204],[-73.75337,40.77321],[-73.75519,40.7765],[-73.75481,40.77762],[-73.75552,40.77758],[-73.75552,40.7777],[-73.75471,40.77772],[-73.753,40.78129],[-73.75135,40.78253],[-73.75021,40.7824],[-73.74825,40.78076],[-73.74736,40.77938],[-73.74778,40.77911],[-73.74679,40.77903],[-73.74535,40.77715],[-73.74611,40.77846],[-73.74541,40.77898],[-73.74462,40.77792],[-73.74524,40.7774],[-73.74525,40.77696],[-73.74502,40.7766],[-73.74508,40.77745],[-73.74443,40.77746],[-73.74404,40.77859],[-73.73938,40.77601],[-73.70218,40.75289],[-73.70163,40.75249],[-73.70135,40.75078],[-73.70002,40.73924],[-73.70766,40.72783],[-73.71693,40.72639],[-73.72567,40.72404],[-73.73033,40.72216],[-73.72689,40.70998],[-73.72563,40.67959],[-73.72756,40.67416],[-73.72824,40.66802],[-73.72782,40.66312],[-73.72833,40.66304],[-73.72557,40.65673],[-73.72498,40.65425],[-73.72523,40.652],[-73.73051,40.65031],[-73.73514,40.64973],[-73.74144,40.64689],[-73.74166,40.6422],[-73.74205,40.64147],[-73.74142,40.6405],[-73.74227,40.64012],[-73.73947,40.63571],[-73.73996,40.63514],[-73.7417,40.63488],[-73.74259,40.63545],[-73.74096,40.6373],[-73.74122,40.63782],[-73.74273,40.63827],[-73.74397,40.63788],[-73.74377,40.63902],[-73.7448,40.63708],[-73.74661,40.63658],[-73.74645,40.63726],[-73.74516,40.63811],[-73.74716,40.63706],[-73.74617,40.6404],[-73.74729,40.64319],[-73.74875,40.64447],[-73.74885,40.64517],[-73.74945,40.64493],[-73.75171,40.6465],[-73.75476,40.64781],[-73.75461,40.6472],[-73.7534,40.64681],[-73.75376,40.64669],[-73.74871,40.64334],[-73.74742,40.64141],[-73.74855,40.63541],[-73.76309,40.62966],[-73.76501,40.62941],[-73.76474,40.62917],[-73.7665,40.62825],[-73.7686,40.62473],[-73.76867,40.62273],[-73.76972,40.62176],[-73.77019,40.61979],[-73.77165,40.62042],[-73.77081,40.62295],[-73.77173,40.62359],[-73.77203,40.62299],[-73.77219,40.623],[-73.77512,40.61923],[-73.77518,40.61926],[-73.77174,40.62361],[-73.77324,40.62499],[-73.77381,40.62493],[-73.77349,40.62514],[-73.77408,40.62578],[-73.77654,40.62765],[-73.77947,40.62732],[-73.78522,40.62006],[-73.78446,40.61703],[-73.78323,40.61558],[-73.78079,40.61459],[-73.78088,40.61364],[-73.78355,40.61192],[-73.78498,40.61193],[-73.78578,40.61099],[-73.78866,40.61009],[-73.78902,40.60922],[-73.78995,40.60898],[-73.7914,40.60761],[-73.79117,40.60847],[-73.79365,40.60899],[-73.79481,40.61038],[-73.79899,40.61148],[-73.79917,40.61203],[-73.80026,40.6116],[-73.8008,40.61193],[-73.79932,40.61336],[-73.79969,40.61378],[-73.79904,40.61555],[-73.79816,40.61572],[-73.79806,40.61633],[-73.79728,40.61666],[-73.79724,40.61759],[-73.79678,40.6177],[-73.797,40.61838],[-73.79636,40.61845],[-73.79619,40.61961],[-73.79502,40.62129],[-73.79523,40.62161],[-73.79447,40.62179],[-73.79458,40.62252],[-73.79076,40.62233],[-73.78916,40.623],[-73.78363,40.62814],[-73.78349,40.63017],[-73.78435,40.63137],[-73.78691,40.63226],[-73.7895,40.63427],[-73.79077,40.63385],[-73.79079,40.63428],[-73.79812,40.63104],[-73.79081,40.63431],[-73.79131,40.6344],[-73.79123,40.63486],[-73.79222,40.63589],[-73.79924,40.63842],[-73.81203,40.6443],[-73.8183,40.64627],[-73.82123,40.64898],[-73.82215,40.65014],[-73.82347,40.65531],[-73.82247,40.65916],[-73.82175,40.66012],[-73.8187,40.66111],[-73.81262,40.66016],[-73.8115,40.66023],[-73.8113,40.66063],[-73.81867,40.66213],[-73.82348,40.66006],[-73.82493,40.65544],[-73.82311,40.648],[-73.82396,40.64919],[-73.82589,40.64949],[-73.82614,40.65008],[-73.82622,40.64836],[-73.82846,40.64912],[-73.8296,40.64983],[-73.83001,40.6509],[-73.83094,40.65163],[-73.83161,40.65375],[-73.82901,40.65611],[-73.83044,40.65552],[-73.8306,40.65481],[-73.83171,40.65393],[-73.83222,40.65446],[-73.83149,40.65498],[-73.83116,40.65592],[-73.82938,40.65651],[-73.82897,40.65721],[-73.82918,40.6578],[-73.83013,40.6584],[-73.82971,40.6585],[-73.8296,40.65866],[-73.83016,40.6598],[-73.8297,40.65866],[-73.83024,40.65835],[-73.82909,40.65733],[-73.8295,40.65665],[-73.83127,40.656],[-73.83185,40.65489],[-73.83218,40.65489],[-73.8329,40.65748],[-73.83194,40.65617],[-73.8326,40.65783],[-73.83113,40.65832],[-73.83338,40.65805],[-73.8308,40.64898],[-73.83149,40.64789],[-73.83453,40.64803],[-73.83557,40.64843],[-73.83597,40.64935],[-73.83893,40.66127],[-73.83808,40.66159],[-73.83814,40.66207],[-73.8397,40.66224],[-73.83998,40.6619],[-73.83592,40.6455],[-73.84579,40.6441],[-73.84951,40.64413],[-73.85208,40.64618],[-73.85243,40.64716],[-73.85173,40.64891],[-73.85091,40.64917],[-73.85059,40.65034],[-73.84926,40.65103],[-73.8494,40.65143],[-73.85078,40.65153],[-73.85251,40.65055],[-73.85592,40.65131],[-73.85671,40.6528],[-73.85828,40.65299],[-73.85933,40.65494],[-73.86136,40.65641],[-73.85983,40.65698],[-73.85964,40.65846],[-73.86023,40.6589],[-73.86098,40.65838],[-73.86061,40.65933],[-73.86125,40.65872],[-73.86096,40.65806],[-73.85977,40.65828],[-73.86058,40.65784],[-73.86034,40.65725],[-73.86088,40.65691],[-73.86161,40.657],[-73.8617,40.65802],[-73.8627,40.65762],[-73.86317,40.65828],[-73.8603,40.65963],[-73.85762,40.66012],[-73.85843,40.66345],[-73.85568,40.66387],[-73.85763,40.67166],[-73.86039,40.67125],[-73.86235,40.67916],[-73.86328,40.67908],[-73.8641,40.68237],[-73.86602,40.68192],[-73.86868,40.69403],[-73.86841,40.69473],[-73.86892,40.69515],[-73.87402,40.69419],[-73.87951,40.69115],[-73.88378,40.68786],[-73.88452,40.68668],[-73.88963,40.68424],[-73.89015,40.685],[-73.89258,40.68349],[-73.89417,40.68528],[-73.89647,40.68234],[-73.90116,40.68788],[-73.90042,40.68818],[-73.90189,40.69108],[-73.9014,40.69159],[-73.9058,40.69413],[-73.90426,40.6957],[-73.91181,40.69995],[-73.91068,40.70105],[-73.9129,40.70236],[-73.91181,40.70343],[-73.92189,40.7094],[-73.92075,40.71053],[-73.92155,40.71104],[-73.92223,40.71286],[-73.92404,40.71401],[-73.92368,40.71408],[-73.92412,40.71514],[-73.92233,40.71608],[-73.92057,40.716],[-73.92224,40.71638],[-73.92394,40.71904],[-73.92424,40.72143],[-73.9252,40.72244],[-73.92442,40.72359],[-73.92073,40.72331],[-73.92037,40.72368],[-73.9249,40.72451],[-73.92923,40.72826],[-73.93453,40.7291],[-73.93804,40.73051],[-73.93911,40.73138],[-73.94007,40.73376],[-73.94162,40.73584],[-73.94594,40.73751],[-73.94146,40.73925],[-73.93859,40.74293],[-73.94002,40.74321],[-73.94015,40.74283],[-73.93965,40.74273],[-73.94119,40.74029],[-73.94271,40.73912],[-73.94715,40.7379],[-73.9538,40.73982],[-73.95741,40.73956],[-73.96073,40.73808],[-73.96217,40.73827],[-73.96261,40.7388],[-73.96221,40.74001],[-73.96125,40.74042],[-73.96194,40.74079],[-73.96122,40.74111],[-73.96111,40.74183],[-73.96155,40.74199],[-73.96119,40.74264],[-73.96054,40.74347],[-73.95977,40.7435],[-73.95971,40.74386],[-73.96057,40.74403],[-73.95963,40.74393],[-73.95939,40.74428],[-73.95973,40.74427],[-73.96016,40.74437],[-73.96013,40.74444],[-73.95878,40.74456],[-73.95944,40.7446],[-73.95876,40.74495],[-73.95967,40.74517],[-73.95849,40.74499],[-73.95934,40.74551],[-73.9585,40.74576],[-73.95914,40.746],[-73.95704,40.74892],[-73.95318,40.74773],[-73.95305,40.74809],[-73.95632,40.74908],[-73.95576,40.7496],[-73.9562,40.74969],[-73.95535,40.75001],[-73.95507,40.74963],[-73.9545,40.75123],[-73.95131,40.75458],[-73.9435,40.7645],[-73.93984,40.76799],[-73.93896,40.76796],[-73.9382,40.7687],[-73.93681,40.7689],[-73.9349,40.77004],[-73.93501,40.77116],[-73.93444,40.77146],[-73.93747,40.77253],[-73.93781,40.77356],[-73.93765,40.77509],[-73.93638,40.77692],[-73.93508,40.77794],[-73.93381,40.7781],[-73.93179,40.77787],[-73.92988,40.77622],[-73.92861,40.77659],[-73.92632,40.77824],[-73.92487,40.77863],[-73.91909,40.78337],[-73.91717,40.78419],[-73.91683,40.78519],[-73.91526,40.78619],[-73.91559,40.78643],[-73.9126,40.78938],[-73.91267,40.789],[-73.91094,40.78976],[-73.90986,40.79095],[-73.90033,40.78901],[-73.89593,40.78565],[-73.89583,40.78522],[-73.89876,40.78275],[-73.90115,40.78271],[-73.90218,40.78178],[-73.90258,40.78029],[-73.90129,40.78186],[-73.89865,40.782],[-73.89438,40.78424],[-73.89606,40.78316],[-73.89477,40.78225],[-73.89542,40.78172],[-73.89536,40.78166],[-73.8946,40.78225],[-73.89534,40.78159],[-73.89416,40.78247],[-73.89306,40.78185],[-73.89231,40.78247],[-73.89275,40.78297],[-73.89165,40.78219],[-73.89224,40.78241],[-73.89301,40.7818],[-73.89167,40.78085],[-73.89254,40.77955],[-73.89167,40.77949],[-73.8912,40.77856],[-73.89252,40.7774],[-73.89142,40.77634],[-73.89183,40.77488],[-73.89112,40.77712],[-73.89009,40.77778],[-73.88947,40.77554],[-73.89019,40.77365],[-73.88945,40.77353],[-73.88581,40.77402],[-73.88583,40.77411],[-73.88567,40.77413],[-73.88567,40.77443],[-73.88563,40.7741],[-73.88578,40.77402],[-73.88392,40.77413],[-73.88484,40.77495],[-73.88429,40.77548],[-73.88541,40.77966],[-73.88385,40.78026],[-73.87961,40.78085],[-73.87871,40.78059],[-73.87931,40.78185],[-73.87886,40.7824],[-73.87975,40.78284],[-73.8797,40.78288],[-73.87883,40.78243],[-73.87834,40.78303],[-73.87516,40.78151],[-73.87125,40.78604],[-73.86978,40.78534],[-73.8681,40.78746],[-73.86788,40.78736],[-73.86987,40.78509],[-73.86944,40.78364],[-73.86861,40.78381],[-73.8685,40.78367],[-73.86942,40.78359],[-73.87232,40.7811],[-73.87022,40.78125],[-73.87256,40.78082],[-73.85505,40.7722],[-73.85646,40.77027],[-73.85788,40.77066],[-73.85804,40.7702],[-73.85735,40.77018],[-73.85625,40.76889],[-73.85705,40.76914],[-73.85938,40.76708],[-73.86086,40.76693],[-73.8611,40.76727],[-73.86275,40.76676],[-73.85949,40.76256],[-73.85892,40.76212],[-73.85865,40.76251],[-73.85884,40.76206],[-73.85765,40.76308],[-73.8585,40.76338],[-73.85834,40.76356],[-73.85764,40.7631],[-73.85696,40.76407],[-73.85667,40.76393],[-73.85758,40.76307],[-73.85659,40.76272],[-73.8576,40.76305],[-73.85818,40.7624],[-73.85661,40.76165],[-73.85819,40.76237],[-73.85859,40.76192],[-73.85466,40.76017],[-73.85279,40.75997],[-73.85297,40.76022],[-73.85159,40.75936],[-73.85069,40.75945],[-73.8493,40.76024],[-73.84987,40.7611],[-73.85207,40.76039],[-73.84981,40.76127],[-73.84859,40.76018],[-73.84369,40.76361],[-73.84307,40.76359],[-73.84273,40.76463],[-73.84053,40.76539],[-73.83958,40.76525],[-73.83913,40.76599],[-73.8397,40.76639],[-73.83959,40.76711],[-73.84031,40.76629],[-73.84449,40.76546],[-73.84781,40.76677],[-73.84862,40.76811],[-73.84819,40.76848],[-73.849,40.76915],[-73.84847,40.76973],[-73.84867,40.77076],[-73.84994,40.77193],[-73.85034,40.77174],[-73.8513,40.77181],[-73.84995,40.77196],[-73.84898,40.77356],[-73.84897,40.77802],[-73.84993,40.77877],[-73.84964,40.77948],[-73.85095,40.77907],[-73.85149,40.77899],[-73.84982,40.77963],[-73.85235,40.77948],[-73.85236,40.77917],[-73.85239,40.77953],[-73.84956,40.77988],[-73.85169,40.77987],[-73.84949,40.78007],[-73.84989,40.78109],[-73.85094,40.78112],[-73.84989,40.78112],[-73.84984,40.7816],[-73.84919,40.78164],[-73.84955,40.78184],[-73.84925,40.78226],[-73.85528,40.78198],[-73.85545,40.78314],[-73.85645,40.78335],[-73.85665,40.78289],[-73.85684,40.78337],[-73.85808,40.78372],[-73.8579,40.78449],[-73.85853,40.78521],[-73.85946,40.78549],[-73.85935,40.78503],[-73.85951,40.78553],[-73.85899,40.78549],[-73.85814,40.78704],[-73.85681,40.78667],[-73.85594,40.78769],[-73.85284,40.78821],[-73.8548,40.78861],[-73.85447,40.79026],[-73.85265,40.79112],[-73.85377,40.79234],[-73.85369,40.79402],[-73.85277,40.79439],[-73.85263,40.79494],[-73.85159,40.79409],[-73.84906,40.79336],[-73.84871,40.79542],[-73.84624,40.79616],[-73.8446,40.79491],[-73.84355,40.79491],[-73.84331,40.7955],[-73.84285,40.79521],[-73.84328,40.79617],[-73.84281,40.79542],[-73.84226,40.79558],[-73.84287,40.79692],[-73.84142,40.79515],[-73.8413,40.79622],[-73.84014,40.79688],[-73.84042,40.79768],[-73.8379,40.79851],[-73.84026,40.79759],[-73.83997,40.79691],[-73.8384,40.79676],[-73.83706,40.79385],[-73.83659,40.79208],[-73.83752,40.79101],[-73.8375,40.79046],[-73.83682,40.79047],[-73.83748,40.79043],[-73.83728,40.78901],[-73.83713,40.78956],[-73.83566,40.78957],[-73.83414,40.78907],[-73.83381,40.78852],[-73.83293,40.78852],[-73.83144,40.78918],[-73.83215,40.79004],[-73.83137,40.79137],[-73.82895,40.79201],[-73.82852,40.79249],[-73.82923,40.793],[-73.8284,40.79255],[-73.82791,40.79289],[-73.82797,40.79479],[-73.82881,40.79618],[-73.82945,40.79666],[-73.82994,40.79608],[-73.83003,40.79614],[-73.82947,40.79667],[-73.82977,40.79683],[-73.83029,40.79624],[-73.83052,40.79639],[-73.82996,40.79691],[-73.82978,40.79687],[-73.82906,40.79646],[-73.82742,40.79675],[-73.82674,40.7978],[-73.82612,40.79727],[-73.82506,40.79738],[-73.82399,40.79801],[-73.82423,40.7987],[-73.82386,40.79815],[-73.82343,40.79841],[-73.82372,40.7989],[-73.82325,40.79847],[-73.82331,40.79896],[-73.82261,40.79889],[-73.82268,40.79949],[-73.82239,40.79911],[-73.82043,40.80063],[-73.8205,40.80101]]]]}},{"type":"Feature","properties":{"name":"Manhattan","slug":"manhattan"},"geometry":{"type":"MultiPolygon","coordinates":[[[[-74.01093,40.68449],[-74.01218,40.6841],[-74.00816,40.68617],[-74.0086,40.68591],[-74.01093,40.68449]]],[[[-74.005,40.68761],[-74.00563,40.68678],[-74.00783,40.68739],[-74.00742,40.68821],[-74.005,40.68761]]],[[[-74.00382,40.68893],[-74.00459,40.68822],[-74.00678,40.68883],[-74.00636,40.68967],[-74.00382,40.68893]]],[[[-74.00298,40.69043],[-74.00341,40.68961],[-74.00576,40.69024],[-74.00534,40.69109],[-74.00298,40.69043]]],[[[-74.04388,40.69019],[-74.04351,40.68969],[-74.0427,40.69016],[-74.04255,40.68996],[-74.04347,40.68964],[-74.04364,40.68877],[-74.04439,40.68852],[-74.0468,40.68995],[-74.04748,40.68961],[-74.04773,40.68992],[-74.04689,40.69006],[-74.04717,40.69099],[-74.04615,40.69112],[-74.04388,40.69019]]],[[[-74.00199,40.69233],[-74.0018,40.69227],[-74.00216,40.69224],[-74.00199,40.69233]]],[[[-74.00133,40.69146],[-74.0007,40.69061],[-74.00479,40.69176],[-74.00441,40.69253],[-74.00133,40.69146]]],[[[-74.01675,40.69334],[-74.01513,40.69324],[-74.01344,40.69212],[-74.01181,40.69248],[-74.0119,40.69209],[-74.01333,40.69202],[-74.01261,40.69136],[-74.01203,40.6915],[-74.01253,40.69115],[-74.01183,40.69106],[-74.0122,40.69103],[-74.01231,40.68928],[-74.01317,40.68815],[-74.01488,40.68725],[-74.01705,40.68688],[-74.01665,40.68642],[-74.01514,40.68644],[-74.01667,40.68631],[-74.01712,40.68684],[-74.02054,40.68527],[-74.02021,40.68483],[-74.0194,40.68509],[-74.02095,40.68438],[-74.02028,40.68481],[-74.02061,40.68524],[-74.02259,40.68436],[-74.02213,40.68377],[-74.02306,40.68292],[-74.02237,40.68378],[-74.02276,40.68428],[-74.02465,40.68398],[-74.02633,40.6848],[-74.02643,40.68618],[-74.02021,40.69203],[-74.01973,40.69311],[-74.01675,40.69334]]],[[[-74.00154,40.69279],[-74.00174,40.69241],[-74.00401,40.69321],[-74.00345,40.69405],[-74.00127,40.6933],[-74.00154,40.69279]]],[[[-74.00078,40.69429],[-74.00096,40.69407],[-74.00301,40.69478],[-74.0024,40.69571],[-74.00027,40.69497],[-74.00078,40.69429]]],[[[-73.99838,40.69806],[-73.99887,40.69716],[-74.00105,40.69791],[-74.00049,40.69876],[-73.99838,40.69806]]],[[[-73.998,40.6988],[-73.99802,40.69876],[-74.00002,40.69947],[-73.99947,40.70032],[-73.9975,40.69964],[-73.998,40.6988]]],[[[-74.03995,40.70089],[-74.03771,40.69934],[-74.03823,40.69837],[-74.03934,40.69812],[-74.04124,40.69954],[-74.04175,40.69915],[-74.03991,40.6977],[-74.04166,40.69645],[-74.04367,40.69802],[-74.0411,40.70049],[-74.0408,40.70027],[-74.03995,40.70089]]],[[[-73.99629,40.70143],[-73.9967,40.70088],[-73.99814,40.70152],[-73.99619,40.70338],[-73.99514,40.70297],[-73.99629,40.70143]]],[[[-73.99502,40.70315],[-73.99545,40.70328],[-73.99529,40.70355],[-73.9948,40.70329],[-73.99502,40.70315]]],[[[-73.99477,40.70395],[-73.99488,40.70379],[-73.99503,40.70381],[-73.99488,40.70401],[-73.99477,40.70395]]],[[[-73.98237,40.70554],[-73.98242,40.70582],[-73.98102,40.7059],[-73.9823,40.70574],[-73.98237,40.70554]]],[[[-73.96715,40.71832],[-73.96656,40.71802],[-73.96731,40.71831],[-73.96718,40.71848],[-73.96715,40.71832]]],[[[-73.96644,40.71924],[-73.96636,40.71905],[-73.96574,40.71871],[-73.96664,40.71913],[-73.96644,40.71924]]],[[[-73.96503,40.72038],[-73.96512,40.72032],[-73.96568,40.72068],[-73.9656,40.72074],[-73.96503,40.72038]]],[[[-73.96483,40.7208],[-73.96436,40.72048],[-73.96503,40.72079],[-73.96483,40.7208]]],[[[-73.96403,40.72088],[-73.96407,40.7208],[-73.96438,40.72099],[-73.96431,40.72106],[-73.96403,40.72088]]],[[[-73.96424,40.72061],[-73.96427,40.72058],[-73.96495,40.72142],[-73.96484,40.72146],[-73.96424,40.72061]]],[[[-73.96237,40.72421],[-73.96201,40.72399],[-73.96207,40.72388],[-73.96247,40.72413],[-73.96237,40.72421]]],[[[-73.96128,40.73016],[-73.96128,40.73006],[-73.96255,40.72974],[-73.96225,40.72999],[-73.96128,40.73016]]],[[[-73.96197,40.73158],[-73.96167,40.73148],[-73.96366,40.73125],[-73.9637,40.73144],[-73.96197,40.73158]]],[[[-73.96052,40.74411],[-73.96057,40.74403],[-73.96067,40.74405],[-73.96065,40.74413],[-73.96052,40.74411]]],[[[-73.96421,40.7466],[-73.96445,40.74641],[-73.96458,40.74645],[-73.96416,40.74687],[-73.96421,40.7466]]],[[[-73.95764,40.74841],[-73.95749,40.74834],[-73.95784,40.74834],[-73.95769,40.74854],[-73.95764,40.74841]]],[[[-73.93557,40.77192],[-73.93557,40.77163],[-73.93585,40.77172],[-73.9357,40.77177],[-73.93557,40.77192]]],[[[-73.9418,40.76905],[-73.95322,40.75643],[-73.95791,40.75211],[-73.96154,40.74972],[-73.95902,40.7536],[-73.95209,40.76086],[-73.94472,40.76979],[-73.94213,40.77203],[-73.94008,40.77293],[-73.94036,40.7705],[-73.9418,40.76905]]],[[[-73.93805,40.78083],[-73.93765,40.781],[-73.9376,40.78047],[-73.93958,40.77958],[-73.93874,40.78104],[-73.93808,40.78142],[-73.93805,40.78083]]],[[[-73.92134,40.80085],[-73.92031,40.79938],[-73.91663,40.79786],[-73.91444,40.79567],[-73.91378,40.79384],[-73.91514,40.79201],[-73.91687,40.79036],[-73.91856,40.7897],[-73.92219,40.78551],[-73.92285,40.78356],[-73.92448,40.78232],[-73.92572,40.78218],[-73.9281,40.78092],[-73.93105,40.7824],[-73.93502,40.78301],[-73.93607,40.78422],[-73.93571,40.78568],[-73.9324,40.78972],[-73.92972,40.79137],[-73.92807,40.79082],[-73.9261,40.79073],[-73.92616,40.79172],[-73.92657,40.79186],[-73.92559,40.79182],[-73.92674,40.79193],[-73.92649,40.79102],[-73.92787,40.79095],[-73.92714,40.79193],[-73.92827,40.79233],[-73.92832,40.7931],[-73.92694,40.7955],[-73.92712,40.7972],[-73.92771,40.7973],[-73.9272,40.79739],[-73.92748,40.79812],[-73.9267,40.80015],[-73.92725,40.80039],[-73.92667,40.80018],[-73.92655,40.8006],[-73.92705,40.80065],[-73.92651,40.80066],[-73.92528,40.802],[-73.92263,40.80187],[-73.92134,40.80085]]],[[[-73.92641,40.87762],[-73.92619,40.87706],[-73.92457,40.87743],[-73.9224,40.87678],[-73.92261,40.87441],[-73.92126,40.87308],[-73.92056,40.873],[-73.91979,40.87361],[-73.9208,40.87419],[-73.92118,40.87514],[-73.92081,40.87548],[-73.91888,40.87468],[-73.91927,40.87365],[-73.91893,40.87332],[-73.91839,40.87321],[-73.91861,40.87347],[-73.91758,40.87455],[-73.91787,40.8739],[-73.91522,40.87449],[-73.91143,40.87318],[-73.91043,40.87149],[-73.91092,40.86944],[-73.91147,40.86945],[-73.91108,40.86904],[-73.91255,40.86651],[-73.91392,40.86475],[-73.91492,40.86458],[-73.91441,40.86417],[-73.9159,40.86431],[-73.9152,40.86395],[-73.91539,40.86308],[-73.91729,40.86168],[-73.91944,40.85886],[-73.92159,40.86007],[-73.92187,40.85918],[-73.92091,40.85822],[-73.92238,40.85658],[-73.92234,40.85568],[-73.9217,40.85667],[-73.92152,40.8566],[-73.92972,40.84523],[-73.93492,40.83523],[-73.93516,40.83268],[-73.93383,40.81972],[-73.93434,40.80956],[-73.93356,40.8076],[-73.93031,40.80379],[-73.92903,40.80108],[-73.92928,40.79585],[-73.9302,40.79459],[-73.93583,40.79109],[-73.93708,40.78937],[-73.93613,40.78893],[-73.93715,40.78917],[-73.93812,40.78718],[-73.93983,40.78526],[-73.94324,40.78333],[-73.94388,40.78153],[-73.9436,40.78016],[-73.94344,40.77976],[-73.9424,40.78003],[-73.94211,40.77945],[-73.943,40.77885],[-73.942,40.77619],[-73.94293,40.77468],[-73.95442,40.76218],[-73.95918,40.75786],[-73.97094,40.74447],[-73.9707,40.74399],[-73.97136,40.74384],[-73.97266,40.73922],[-73.97249,40.7358],[-73.97441,40.73641],[-73.97403,40.73613],[-73.97447,40.73628],[-73.97414,40.73596],[-73.97451,40.73589],[-73.97306,40.73518],[-73.97276,40.73551],[-73.97295,40.73507],[-73.97354,40.73494],[-73.97444,40.73532],[-73.97341,40.73128],[-73.97148,40.72925],[-73.97149,40.72735],[-73.97357,40.7186],[-73.97671,40.71154],[-73.978,40.71056],[-73.98129,40.71022],[-73.98125,40.70983],[-73.98839,40.70913],[-73.9888,40.70997],[-73.99808,40.70851],[-74.00119,40.70686],[-74.00098,40.70642],[-74.00141,40.70618],[-74.00059,40.70541],[-74.00145,40.70487],[-74.00257,40.70552],[-74.00197,40.70474],[-74.00243,40.70468],[-74.00332,40.70563],[-74.00383,40.7053],[-74.00287,40.70408],[-74.00406,40.70515],[-74.0066,40.70369],[-74.0053,40.70256],[-74.00549,40.70243],[-74.00679,40.70357],[-74.00929,40.70193],[-74.0087,40.70114],[-74.00776,40.70155],[-74.00835,40.70067],[-74.00958,40.70184],[-74.01118,40.70145],[-74.01082,40.7002],[-74.01115,40.7009],[-74.01163,40.70046],[-74.01209,40.70068],[-74.01196,40.70004],[-74.01239,40.70062],[-74.01261,40.70011],[-74.01311,40.70051],[-74.01311,40.69977],[-74.01395,40.70099],[-74.01422,40.70011],[-74.01429,40.70064],[-74.01467,40.70021],[-74.01432,40.70066],[-74.01464,40.70082],[-74.01507,40.70032],[-74.01467,40.70083],[-74.01579,40.70135],[-74.01788,40.70354],[-74.01757,40.70418],[-74.01866,40.70443],[-74.01748,40.70467],[-74.01889,40.70473],[-74.01934,40.70609],[-74.01912,40.70698],[-74.01854,40.70692],[-74.01819,40.70782],[-74.01886,40.70805],[-74.01777,40.71283],[-74.0178,40.71235],[-74.01662,40.71216],[-74.01632,40.71341],[-74.01758,40.7136],[-74.01772,40.71307],[-74.01671,40.71862],[-74.01321,40.71832],[-74.01307,40.71892],[-74.01291,40.71973],[-74.01341,40.72002],[-74.01638,40.72038],[-74.01631,40.72073],[-74.013,40.72033],[-74.0129,40.72087],[-74.01569,40.72121],[-74.01562,40.72154],[-74.01254,40.7215],[-74.01165,40.72587],[-74.0152,40.72636],[-74.01512,40.72679],[-74.01154,40.72645],[-74.01138,40.72823],[-74.01439,40.72846],[-74.01404,40.73069],[-74.01116,40.73045],[-74.01094,40.73301],[-74.014,40.73333],[-74.01073,40.73344],[-74.01083,40.73401],[-74.01202,40.73406],[-74.01081,40.73428],[-74.01048,40.73806],[-74.01114,40.73839],[-74.01045,40.73836],[-74.01039,40.73917],[-74.01158,40.73926],[-74.01146,40.74058],[-74.01216,40.74061],[-74.01266,40.74075],[-74.00949,40.74074],[-74.00962,40.74136],[-74.0114,40.74182],[-74.01084,40.7426],[-74.01029,40.74236],[-74.01013,40.74258],[-74.00919,40.74229],[-74.00909,40.74289],[-74.01215,40.74356],[-74.01202,40.74394],[-74.0089,40.74392],[-74.00873,40.74488],[-74.00992,40.74533],[-74.00987,40.74492],[-74.01017,40.74494],[-74.00997,40.74532],[-74.01047,40.74539],[-74.01042,40.74498],[-74.01076,40.74501],[-74.01053,40.74538],[-74.0111,40.74545],[-74.01104,40.74505],[-74.01139,40.74507],[-74.01115,40.74545],[-74.01174,40.74552],[-74.01184,40.74513],[-74.01178,40.7456],[-74.01168,40.74598],[-74.00946,40.74575],[-74.00936,40.74634],[-74.01159,40.7466],[-74.01148,40.74699],[-74.00924,40.74676],[-74.00914,40.74736],[-74.01141,40.74763],[-74.0113,40.74801],[-74.00906,40.74779],[-74.00895,40.74841],[-74.01122,40.74868],[-74.01111,40.74905],[-74.00995,40.74893],[-74.0091,40.75037],[-74.01068,40.75102],[-74.01056,40.75132],[-74.009,40.75065],[-74.00853,40.75188],[-74.00934,40.75236],[-74.00843,40.75216],[-74.00999,40.75282],[-74.00997,40.75293],[-74.00835,40.75235],[-74.00774,40.75434],[-74.0048,40.75781],[-74.00528,40.75803],[-74.00503,40.75836],[-74.007,40.75923],[-74.00651,40.75989],[-74.0045,40.75908],[-74.00381,40.75951],[-74.00432,40.75991],[-74.00367,40.75971],[-74.00393,40.76],[-74.00234,40.76154],[-74.00456,40.76252],[-74.0022,40.76173],[-74.00153,40.76264],[-74.00361,40.76378],[-74.00139,40.76285],[-74.00097,40.76342],[-74.00315,40.76433],[-74.00315,40.76474],[-73.99962,40.76356],[-73.99915,40.76421],[-74.00229,40.76556],[-74.00202,40.76589],[-73.99888,40.76457],[-73.99827,40.76555],[-74.00156,40.767],[-74.00131,40.76725],[-73.99807,40.76587],[-73.99738,40.76682],[-74.00065,40.76825],[-74.00039,40.7685],[-73.99716,40.76713],[-73.99646,40.7681],[-73.99974,40.76951],[-73.99947,40.76976],[-73.99707,40.76873],[-73.99657,40.76942],[-73.99903,40.77046],[-73.99876,40.77083],[-73.99631,40.7698],[-73.99542,40.77103],[-73.9959,40.77145],[-73.99494,40.77147],[-73.99707,40.77254],[-73.99687,40.77282],[-73.99477,40.77193],[-73.99445,40.77238],[-73.99612,40.77328],[-73.99416,40.77249],[-73.99383,40.77293],[-73.99618,40.77399],[-73.99394,40.77318],[-73.99227,40.77512],[-73.99206,40.7755],[-73.99239,40.77556],[-73.99093,40.77757],[-73.9904,40.77759],[-73.98887,40.77969],[-73.99155,40.77957],[-73.98889,40.77988],[-73.98547,40.78536],[-73.98617,40.78607],[-73.98712,40.78521],[-73.98613,40.78624],[-73.98543,40.78541],[-73.98508,40.78592],[-73.98577,40.7862],[-73.98502,40.78601],[-73.98466,40.78653],[-73.98595,40.78649],[-73.98462,40.78659],[-73.96414,40.81577],[-73.95882,40.82152],[-73.959,40.82241],[-73.95991,40.82257],[-73.9596,40.82299],[-73.95893,40.82271],[-73.95853,40.82184],[-73.9582,40.82228],[-73.95814,40.82302],[-73.95956,40.82369],[-73.95632,40.82794],[-73.95504,40.82741],[-73.95454,40.82786],[-73.95119,40.83264],[-73.95021,40.8343],[-73.94843,40.83986],[-73.94612,40.84389],[-73.94696,40.85047],[-73.94348,40.85228],[-73.94187,40.85387],[-73.93243,40.86757],[-73.93257,40.86904],[-73.93235,40.86976],[-73.93205,40.8696],[-73.93191,40.87113],[-73.92998,40.87434],[-73.92901,40.87574],[-73.92641,40.87762]],[[-74.00937,40.74219],[-74.01009,40.74249],[-74.01017,40.74167],[-74.00936,40.74142],[-74.00937,40.74219]]],[[[-73.9236,40.8789],[-73.92364,40.87882],[-73.92368,40.87883],[-73.92363,40.87896],[-73.9236,40.8789]]],[[[-73.90665,40.87575],[-73.90774,40.87285],[-73.90893,40.87216],[-73.91092,40.87415],[-73.91579,40.87572],[-73.91206,40.87812],[-73.91149,40.87902],[-73.91033,40.87904],[-73.90704,40.8769],[-73.90665,40.87575]]]]}},{"type":"Feature","properties":{"name":"Bronx","slug":"bronx"},"geometry":{"type":"MultiPolygon","coordinates":[[[[-73.89681,40.79581],[-73.89797,40.79564],[-73.89919,40.7965],[-73.89788,40.79712],[-73.89713,40.7968],[-73.89681,40.79581]]],[[[-73.88885,40.79871],[-73.88665,40.79804],[-73.88376,40.79571],[-73.87837,40.79452],[-73.87288,40.79145],[-73.87121,40.79004],[-73.87081,40.7879],[-73.87309,40.78585],[-73.87831,40.78536],[-73.88905,40.78737],[-73.8903,40.78988],[-73.89218,40.79039],[-73.89282,40.79282],[-73.89179,40.79678],[-73.89062,40.79775],[-73.8908,40.79802],[-73.88835,40.79814],[-73.88885,40.79871]]],[[[-73.89833,40.80241],[-73.89647,40.80079],[-73.89864,40.7991],[-73.90021,40.79926],[-73.89979,40.79951],[-73.90004,40.80091],[-73.89949,40.8009],[-73.89939,40.80194],[-73.89833,40.80241]]],[[[-73.78833,40.83467],[-73.78931,40.83446],[-73.78951,40.83536],[-73.78846,40.83531],[-73.78833,40.83467]]],[[[-73.80222,40.84163],[-73.80264,40.84108],[-73.80695,40.84146],[-73.80681,40.84249],[-73.80393,40.84259],[-73.80222,40.84163]]],[[[-73.78069,40.85493],[-73.78101,40.85488],[-73.78123,40.8554],[-73.78087,40.85553],[-73.78069,40.85493]]],[[[-73.78285,40.85549],[-73.7826,40.85482],[-73.78386,40.85483],[-73.7833,40.85585],[-73.78285,40.85549]]],[[[-73.78922,40.85874],[-73.78877,40.8584],[-73.78878,40.85742],[-73.78804,40.85756],[-73.78803,40.85751],[-73.78878,40.8574],[-73.78848,40.8544],[-73.78735,40.85439],[-73.78835,40.85413],[-73.78691,40.85406],[-73.788,40.85352],[-73.78588,40.85179],[-73.78338,40.85159],[-73.7846,40.8511],[-73.78384,40.85069],[-73.7842,40.85006],[-73.78304,40.84907],[-73.78154,40.8494],[-73.78214,40.8491],[-73.78149,40.84858],[-73.78267,40.84814],[-73.78098,40.84846],[-73.78264,40.84807],[-73.78148,40.84788],[-73.78216,40.84664],[-73.7804,40.84693],[-73.78106,40.8468],[-73.78115,40.84625],[-73.78111,40.84675],[-73.78174,40.84641],[-73.78109,40.8468],[-73.78251,40.84641],[-73.7825,40.84566],[-73.78309,40.84552],[-73.78315,40.84531],[-73.78307,40.84551],[-73.78242,40.84568],[-73.78182,40.84576],[-73.78305,40.8455],[-73.78306,40.84509],[-73.78182,40.84548],[-73.78307,40.84506],[-73.78315,40.8453],[-73.78298,40.84468],[-73.78337,40.84444],[-73.78301,40.84417],[-73.78348,40.84368],[-73.78291,40.84394],[-73.78053,40.84453],[-73.77993,40.84388],[-73.78053,40.84445],[-73.7804,40.84397],[-73.78058,40.84443],[-73.78106,40.84433],[-73.78088,40.84386],[-73.78109,40.84432],[-73.78155,40.84422],[-73.78138,40.8437],[-73.78158,40.84421],[-73.78201,40.84411],[-73.78183,40.84358],[-73.78204,40.8441],[-73.78244,40.84401],[-73.78225,40.84344],[-73.78282,40.84392],[-73.78257,40.84329],[-73.78309,40.84369],[-73.78287,40.84312],[-73.78313,40.8437],[-73.78281,40.84378],[-73.78284,40.84389],[-73.78347,40.84365],[-73.78289,40.84249],[-73.7823,40.84261],[-73.78244,40.84304],[-73.7818,40.8427],[-73.78193,40.84323],[-73.78177,40.8427],[-73.78125,40.8428],[-73.78143,40.84337],[-73.78122,40.8428],[-73.78067,40.84291],[-73.78083,40.84351],[-73.7803,40.84297],[-73.78023,40.84378],[-73.78023,40.84288],[-73.78286,40.84248],[-73.7806,40.84279],[-73.78237,40.84243],[-73.78162,40.84233],[-73.78231,40.84221],[-73.78233,40.84192],[-73.78144,40.84214],[-73.78217,40.84169],[-73.78035,40.84211],[-73.78043,40.84249],[-73.7802,40.84205],[-73.78185,40.84165],[-73.78166,40.84112],[-73.78089,40.84155],[-73.7808,40.84126],[-73.78165,40.8411],[-73.78114,40.83949],[-73.78188,40.83765],[-73.78291,40.83732],[-73.78282,40.83634],[-73.78338,40.83691],[-73.78498,40.83675],[-73.7845,40.83706],[-73.78485,40.83747],[-73.78564,40.83706],[-73.78583,40.83721],[-73.78517,40.83747],[-73.78574,40.83923],[-73.78741,40.83968],[-73.78749,40.84084],[-73.78816,40.84049],[-73.78761,40.8412],[-73.78837,40.8415],[-73.78802,40.84178],[-73.78884,40.84235],[-73.78853,40.84243],[-73.78906,40.84324],[-73.78993,40.84304],[-73.78934,40.84368],[-73.78947,40.84429],[-73.79099,40.84565],[-73.79097,40.84636],[-73.79149,40.84625],[-73.79118,40.84656],[-73.79179,40.84673],[-73.79137,40.84689],[-73.79144,40.84731],[-73.79177,40.84723],[-73.79192,40.84726],[-73.79127,40.8476],[-73.79162,40.84805],[-73.79101,40.84899],[-73.78976,40.84953],[-73.78986,40.84997],[-73.79095,40.84974],[-73.79099,40.84983],[-73.78987,40.84999],[-73.79036,40.85014],[-73.78989,40.85046],[-73.79027,40.85096],[-73.78951,40.8513],[-73.78956,40.85149],[-73.79099,40.85126],[-73.78966,40.8515],[-73.79089,40.85155],[-73.7902,40.85175],[-73.79046,40.85177],[-73.79008,40.85203],[-73.79016,40.85225],[-73.79016,40.85204],[-73.79249,40.85155],[-73.79017,40.85228],[-73.79312,40.85158],[-73.79324,40.85193],[-73.79125,40.8523],[-73.79138,40.8526],[-73.79341,40.85202],[-73.79351,40.85226],[-73.79042,40.85302],[-73.79282,40.85249],[-73.79081,40.8532],[-73.79127,40.85371],[-73.79252,40.85341],[-73.79241,40.85305],[-73.79298,40.8533],[-73.79288,40.85294],[-73.79304,40.85337],[-73.79106,40.85392],[-73.79246,40.8536],[-73.79107,40.85394],[-73.79254,40.85385],[-73.79129,40.85458],[-73.7925,40.85579],[-73.79202,40.85618],[-73.79257,40.85626],[-73.7919,40.85655],[-73.79309,40.85669],[-73.79189,40.85657],[-73.79171,40.85685],[-73.79283,40.85744],[-73.79301,40.857],[-73.79288,40.85748],[-73.79186,40.857],[-73.79268,40.85742],[-73.79189,40.85744],[-73.79257,40.85764],[-73.7924,40.85785],[-73.79174,40.85739],[-73.79184,40.85703],[-73.79094,40.85755],[-73.79179,40.85778],[-73.79144,40.85815],[-73.79162,40.8579],[-73.79093,40.85757],[-73.7902,40.8586],[-73.78922,40.85874]]],[[[-73.76783,40.85444],[-73.76939,40.85254],[-73.76861,40.85079],[-73.7696,40.84759],[-73.76789,40.84529],[-73.76901,40.8451],[-73.77157,40.8475],[-73.77089,40.84975],[-73.77205,40.85162],[-73.77296,40.85216],[-73.77173,40.85248],[-73.77235,40.85385],[-73.77296,40.8538],[-73.77214,40.85441],[-73.77219,40.85999],[-73.77085,40.8601],[-73.76947,40.85933],[-73.76836,40.85836],[-73.76836,40.85766],[-73.76533,40.85504],[-73.76783,40.85444]]],[[[-73.78457,40.86053],[-73.78437,40.85985],[-73.78514,40.85879],[-73.78608,40.85927],[-73.78669,40.85869],[-73.78773,40.85877],[-73.787,40.86022],[-73.78457,40.86053]]],[[[-73.77322,40.86079],[-73.77326,40.86063],[-73.7734,40.86074],[-73.77334,40.86085],[-73.77322,40.86079]]],[[[-73.77514,40.86118],[-73.77527,40.86145],[-73.77493,40.86155],[-73.77492,40.86143],[-73.77514,40.86118]]],[[[-73.7746,40.86207],[-73.77463,40.86182],[-73.77485,40.86181],[-73.77486,40.86198],[-73.7746,40.86207]]],[[[-73.78313,40.86286],[-73.78288,40.86241],[-73.78315,40.86207],[-73.78328,40.86278],[-73.78313,40.86286]]],[[[-73.78401,40.86313],[-73.78354,40.8631],[-73.78377,40.86261],[-73.78469,40.86254],[-73.78401,40.86313]]],[[[-73.76964,40.86554],[-73.76994,40.86552],[-73.76945,40.86576],[-73.76964,40.86554]]],[[[-73.76692,40.86705],[-73.76723,40.86693],[-73.76668,40.86732],[-73.76692,40.86705]]],[[[-73.77172,40.87162],[-73.77224,40.87156],[-73.77263,40.87188],[-73.77085,40.87163],[-73.77172,40.87162]]],[[[-73.77483,40.87403],[-73.77514,40.87455],[-73.77467,40.87479],[-73.77454,40.87429],[-73.77483,40.87403]]],[[[-73.78194,40.87522],[-73.78213,40.87453],[-73.7826,40.87469],[-73.78244,40.87521],[-73.78194,40.87522]]],[[[-73.7819,40.87642],[-73.78172,40.87619],[-73.7822,40.87643],[-73.78211,40.87652],[-73.7819,40.87642]]],[[[-73.78129,40.87594],[-73.78151,40.87605],[-73.78121,40.87659],[-73.78121,40.87628],[-73.78129,40.87594]]],[[[-73.78353,40.87724],[-73.78356,40.87682],[-73.78384,40.87652],[-73.784,40.87686],[-73.78353,40.87724]]],[[[-73.78525,40.87991],[-73.78501,40.87979],[-73.78568,40.87985],[-73.78543,40.88004],[-73.78525,40.87991]]],[[[-73.78484,40.88056],[-73.78382,40.88042],[-73.7837,40.87993],[-73.78407,40.87971],[-73.78535,40.88052],[-73.78484,40.88056]]],[[[-73.87295,40.90444],[-73.85947,40.90052],[-73.85908,40.90101],[-73.85938,40.90157],[-73.85886,40.90171],[-73.85958,40.90244],[-73.85816,40.90231],[-73.85711,40.90365],[-73.85718,40.90529],[-73.85601,40.90531],[-73.85681,40.90616],[-73.85424,40.90703],[-73.85374,40.90779],[-73.85471,40.90801],[-73.85459,40.90894],[-73.85296,40.91035],[-73.85227,40.90985],[-73.85107,40.91037],[-73.85348,40.90753],[-73.85092,40.90662],[-73.85017,40.90751],[-73.84482,40.90553],[-73.84489,40.90419],[-73.84139,40.90417],[-73.84078,40.90163],[-73.83922,40.89942],[-73.83965,40.89733],[-73.83839,40.89407],[-73.82252,40.88943],[-73.82255,40.88981],[-73.82337,40.88992],[-73.82337,40.89097],[-73.82285,40.89121],[-73.79301,40.88336],[-73.79492,40.88054],[-73.79555,40.88069],[-73.79503,40.87975],[-73.79744,40.87514],[-73.79981,40.87416],[-73.80081,40.87149],[-73.80267,40.87015],[-73.80298,40.86874],[-73.80594,40.86893],[-73.80569,40.86955],[-73.8067,40.87042],[-73.80786,40.87113],[-73.80924,40.87122],[-73.80841,40.87093],[-73.80873,40.87043],[-73.80754,40.87038],[-73.80871,40.86909],[-73.80785,40.86973],[-73.80673,40.86953],[-73.80695,40.86886],[-73.80487,40.86823],[-73.80474,40.86666],[-73.80385,40.86717],[-73.80291,40.86698],[-73.80308,40.86607],[-73.80272,40.86566],[-73.80177,40.86588],[-73.79774,40.87235],[-73.79479,40.8732],[-73.79317,40.87706],[-73.7944,40.87764],[-73.79289,40.87958],[-73.79095,40.88007],[-73.79076,40.88084],[-73.78914,40.88126],[-73.78912,40.88008],[-73.79006,40.87959],[-73.78952,40.879],[-73.78611,40.87906],[-73.78422,40.87828],[-73.78468,40.87606],[-73.78691,40.87399],[-73.78714,40.87276],[-73.78625,40.87238],[-73.78508,40.87359],[-73.78553,40.87254],[-73.78522,40.87163],[-73.78402,40.87377],[-73.78341,40.87372],[-73.78395,40.8729],[-73.78307,40.87215],[-73.78329,40.8707],[-73.78488,40.86951],[-73.7856,40.86834],[-73.78595,40.86932],[-73.78858,40.86917],[-73.79026,40.86849],[-73.79153,40.86732],[-73.79223,40.86526],[-73.79146,40.86227],[-73.79189,40.86107],[-73.7936,40.86052],[-73.79412,40.8597],[-73.79487,40.85808],[-73.79435,40.85653],[-73.79685,40.85626],[-73.79799,40.85485],[-73.79872,40.85491],[-73.79902,40.85396],[-73.79796,40.85299],[-73.79781,40.85195],[-73.79819,40.85059],[-73.79932,40.84991],[-73.80029,40.84814],[-73.80147,40.84877],[-73.80197,40.85038],[-73.80418,40.85334],[-73.80453,40.85485],[-73.80352,40.85556],[-73.80479,40.86154],[-73.80601,40.86177],[-73.80582,40.86003],[-73.80741,40.86011],[-73.80818,40.85949],[-73.81085,40.86233],[-73.81327,40.86322],[-73.81396,40.8641],[-73.81438,40.86325],[-73.8151,40.86306],[-73.81641,40.86118],[-73.8148,40.86113],[-73.81382,40.86055],[-73.81273,40.85888],[-73.81231,40.85416],[-73.81641,40.85408],[-73.81712,40.85127],[-73.81571,40.85082],[-73.81629,40.85019],[-73.81513,40.84917],[-73.8159,40.84801],[-73.8156,40.84766],[-73.8161,40.84751],[-73.81611,40.84645],[-73.81572,40.84629],[-73.81546,40.8466],[-73.81463,40.84714],[-73.81465,40.84722],[-73.81451,40.84711],[-73.8157,40.84629],[-73.81369,40.84727],[-73.81356,40.84715],[-73.81491,40.84647],[-73.81442,40.84619],[-73.81503,40.8455],[-73.81319,40.84623],[-73.81403,40.84559],[-73.81363,40.84528],[-73.81336,40.84585],[-73.81329,40.84595],[-73.81321,40.84592],[-73.81362,40.84528],[-73.81326,40.84523],[-73.81285,40.84632],[-73.81324,40.84524],[-73.8131,40.84517],[-73.81288,40.84513],[-73.81316,40.84521],[-73.81286,40.84519],[-73.81241,40.84656],[-73.81228,40.84654],[-73.81286,40.84513],[-73.81254,40.84498],[-73.81188,40.84659],[-73.81244,40.84674],[-73.8117,40.84668],[-73.81266,40.84421],[-73.81312,40.84479],[-73.81255,40.84495],[-73.81368,40.84506],[-73.81417,40.84478],[-73.8137,40.84485],[-73.81418,40.84468],[-73.81347,40.84426],[-73.81348,40.84365],[-73.815,40.8435],[-73.81567,40.84443],[-73.81644,40.84406],[-73.8175,40.84437],[-73.81824,40.84434],[-73.81663,40.84394],[-73.81572,40.84254],[-73.81517,40.84258],[-73.8157,40.84252],[-73.81526,40.84126],[-73.81473,40.84138],[-73.81523,40.84101],[-73.81481,40.8398],[-73.81437,40.83987],[-73.81472,40.83959],[-73.81432,40.83965],[-73.81431,40.83962],[-73.81602,40.83853],[-73.81648,40.8377],[-73.81606,40.83603],[-73.8155,40.83595],[-73.81606,40.83577],[-73.81557,40.83553],[-73.81608,40.83536],[-73.81608,40.83459],[-73.81566,40.83449],[-73.81604,40.83417],[-73.81488,40.83103],[-73.81449,40.83117],[-73.81484,40.83099],[-73.81452,40.83062],[-73.81391,40.83092],[-73.8139,40.83091],[-73.81451,40.83061],[-73.81386,40.83056],[-73.8143,40.83035],[-73.81275,40.82825],[-73.80993,40.82819],[-73.8101,40.82782],[-73.81105,40.82798],[-73.81004,40.82778],[-73.81264,40.82784],[-73.81385,40.8268],[-73.81372,40.82627],[-73.81292,40.82635],[-73.81399,40.82607],[-73.81395,40.82573],[-73.81342,40.82593],[-73.81394,40.82572],[-73.8138,40.8253],[-73.81211,40.82555],[-73.81328,40.82516],[-73.81397,40.82419],[-73.81327,40.82397],[-73.81273,40.82478],[-73.81177,40.82434],[-73.80909,40.82587],[-73.80767,40.8259],[-73.80698,40.82539],[-73.80666,40.82342],[-73.80595,40.82288],[-73.80599,40.82082],[-73.80462,40.81903],[-73.80348,40.81828],[-73.80208,40.81856],[-73.80071,40.81804],[-73.79759,40.81651],[-73.79738,40.81576],[-73.79903,40.81554],[-73.80011,40.81402],[-73.80175,40.81287],[-73.80134,40.81239],[-73.80176,40.81286],[-73.80306,40.81245],[-73.80361,40.81252],[-73.80352,40.81292],[-73.80378,40.81281],[-73.80436,40.81361],[-73.80361,40.81297],[-73.80325,40.8132],[-73.80453,40.81425],[-73.80322,40.81337],[-73.80472,40.81523],[-73.80658,40.81659],[-73.80508,40.8152],[-73.80455,40.81463],[-73.80466,40.81454],[-73.80633,40.81614],[-73.80672,40.81658],[-73.80661,40.81666],[-73.80693,40.81657],[-73.80654,40.81589],[-73.80705,40.81653],[-73.80663,40.81559],[-73.80546,40.81469],[-73.805,40.81221],[-73.80391,40.81211],[-73.80235,40.81004],[-73.80101,40.81071],[-73.80147,40.81014],[-73.79854,40.80959],[-73.79229,40.80685],[-73.7914,40.807],[-73.79152,40.80749],[-73.79086,40.80734],[-73.79006,40.80541],[-73.79057,40.80456],[-73.79225,40.804],[-73.79339,40.8042],[-73.79578,40.80616],[-73.79792,40.80671],[-73.80159,40.80899],[-73.80278,40.80912],[-73.80393,40.80853],[-73.80992,40.81293],[-73.814,40.81355],[-73.81443,40.81352],[-73.8145,40.81291],[-73.81448,40.81352],[-73.8162,40.81385],[-73.82056,40.81302],[-73.82024,40.81243],[-73.82107,40.8122],[-73.82032,40.81244],[-73.82113,40.81245],[-73.82044,40.81266],[-73.82059,40.81302],[-73.82409,40.81216],[-73.82506,40.81183],[-73.82481,40.81144],[-73.82524,40.81176],[-73.82488,40.81127],[-73.82565,40.81159],[-73.82536,40.81103],[-73.82567,40.81158],[-73.82554,40.81102],[-73.82581,40.81153],[-73.8258,40.81121],[-73.82803,40.81145],[-73.83018,40.81084],[-73.83162,40.80957],[-73.83217,40.80816],[-73.83162,40.80494],[-73.83432,40.80516],[-73.83744,40.8062],[-73.84026,40.81144],[-73.84043,40.81254],[-73.83957,40.81449],[-73.84009,40.8178],[-73.83868,40.81959],[-73.83906,40.8198],[-73.83888,40.82214],[-73.84233,40.82907],[-73.84189,40.83071],[-73.83885,40.83369],[-73.83919,40.83871],[-73.83972,40.83957],[-73.8403,40.83952],[-73.83959,40.83404],[-73.84018,40.83304],[-73.84221,40.83155],[-73.84311,40.82979],[-73.84253,40.82753],[-73.84002,40.82219],[-73.84,40.81993],[-73.84199,40.81877],[-73.84521,40.81189],[-73.84617,40.81068],[-73.8472,40.81058],[-73.84821,40.81246],[-73.8506,40.81393],[-73.85301,40.81458],[-73.85262,40.81406],[-73.85337,40.81359],[-73.85538,40.81429],[-73.85347,40.81348],[-73.8512,40.81355],[-73.84915,40.8123],[-73.84917,40.81092],[-73.85004,40.80922],[-73.84955,40.80872],[-73.84997,40.80858],[-73.84961,40.80812],[-73.84871,40.80824],[-73.84952,40.80806],[-73.84842,40.80737],[-73.84838,40.80636],[-73.84754,40.80593],[-73.84808,40.80492],[-73.84933,40.80505],[-73.84941,40.80467],[-73.84982,40.80509],[-73.85065,40.80448],[-73.85605,40.80459],[-73.85662,40.80487],[-73.85569,40.80468],[-73.8556,40.80506],[-73.85724,40.80531],[-73.85683,40.80491],[-73.85889,40.80589],[-73.85831,40.806],[-73.85861,40.8067],[-73.85908,40.80648],[-73.85888,40.80599],[-73.8592,40.80627],[-73.8594,40.80753],[-73.85916,40.80688],[-73.85867,40.80683],[-73.85839,40.80826],[-73.85895,40.81027],[-73.86013,40.80961],[-73.85933,40.809],[-73.85939,40.80816],[-73.86066,40.80963],[-73.86766,40.81058],[-73.87078,40.81449],[-73.87652,40.81613],[-73.87673,40.81539],[-73.87239,40.81397],[-73.87057,40.81209],[-73.87055,40.81124],[-73.86811,40.80675],[-73.87175,40.80155],[-73.87355,40.80085],[-73.87527,40.8014],[-73.87814,40.80132],[-73.87817,40.80255],[-73.87892,40.80277],[-73.88372,40.80186],[-73.88505,40.80213],[-73.88796,40.805],[-73.88906,40.80502],[-73.88922,40.80585],[-73.89015,40.80496],[-73.88937,40.80593],[-73.89179,40.80562],[-73.89198,40.80638],[-73.89271,40.80634],[-73.89253,40.80566],[-73.89227,40.8057],[-73.89216,40.8053],[-73.89127,40.80501],[-73.89173,40.80505],[-73.8922,40.80528],[-73.8923,40.80566],[-73.89257,40.80562],[-73.89275,40.80634],[-73.89485,40.80621],[-73.89484,40.80572],[-73.8951,40.80686],[-73.89551,40.8066],[-73.89528,40.80577],[-73.89559,40.80658],[-73.89598,40.80652],[-73.89587,40.80581],[-73.89611,40.8065],[-73.8975,40.80621],[-73.89741,40.8058],[-73.89801,40.80617],[-73.89787,40.80553],[-73.89816,40.80614],[-73.89853,40.80543],[-73.90222,40.80495],[-73.90681,40.80089],[-73.90807,40.79957],[-73.90779,40.79949],[-73.90768,40.79939],[-73.90842,40.79944],[-73.9083,40.79896],[-73.91169,40.79662],[-73.91372,40.79679],[-73.91903,40.79898],[-73.92024,40.79961],[-73.92133,40.80128],[-73.92293,40.80237],[-73.92763,40.8027],[-73.92728,40.80351],[-73.92765,40.80399],[-73.92873,40.8041],[-73.93228,40.80836],[-73.93286,40.81012],[-73.93234,40.81763],[-73.93361,40.83279],[-73.93314,40.83519],[-73.93052,40.83993],[-73.92862,40.84468],[-73.92256,40.85319],[-73.9208,40.85538],[-73.9203,40.85525],[-73.92053,40.85569],[-73.91957,40.85684],[-73.91341,40.86337],[-73.91276,40.86303],[-73.91227,40.86363],[-73.9128,40.8639],[-73.91042,40.86657],[-73.90865,40.87139],[-73.90893,40.87216],[-73.90774,40.87285],[-73.90665,40.87575],[-73.90704,40.8769],[-73.91033,40.87904],[-73.91149,40.87902],[-73.91206,40.87812],[-73.91579,40.87572],[-73.91776,40.87566],[-73.91978,40.87642],[-73.92274,40.87891],[-73.9249,40.87889],[-73.92381,40.88032],[-73.92039,40.88765],[-73.91518,40.90158],[-73.91501,40.90308],[-73.91459,40.90412],[-73.91419,40.90414],[-73.91287,40.90754],[-73.91311,40.90785],[-73.91265,40.90807],[-73.9115,40.91217],[-73.9115,40.91377],[-73.91033,40.91553],[-73.87295,40.90444]]]]}}]}